{"type":"Feature","properties":{"name":"Estado de São Paulo","source":"OpenStreetMap, relação 298204, simplificada pelo Nominatim (polygon_threshold=0.001, cerca de 100 m)","license":"© colaboradores do OpenStreetMap, ODbL (https://www.openstreetmap.org/copyright)","retrieved":"2026-10-07"},"geometry":{"type":"Polygon","coordinates":[[[-53.109,-22.604],[-53.108,-22.615],[-53.094,-22.638],[-53.087,-22.658],[-53.074,-22.641],[-53.055,-22.632],[-53.0455055,-22.6247148],[-53.0307484,-22.6083259],[-53.0198693,-22.6016898],[-53.011673,-22.598795],[-52.984,-22.576],[-52.972,-22.57],[-52.9288368,-22.5651387],[-52.9225373,-22.5661268],[-52.905,-22.572],[-52.8732628,-22.5965591],[-52.8587636,-22.6045136],[-52.8303338,-22.6037895],[-52.8161373,-22.6017346],[-52.782,-22.602],[-52.7199293,-22.6229201],[-52.701,-22.627],[-52.6904298,-22.6257366],[-52.6615838,-22.6120498],[-52.605545,-22.5762005],[-52.5973892,-22.5735769],[-52.5834247,-22.5728056],[-52.5709963,-22.5754196],[-52.5595113,-22.5844036],[-52.523,-22.619],[-52.5048324,-22.6274246],[-52.4918882,-22.6273064],[-52.4639101,-22.6205461],[-52.446889,-22.6085342],[-52.4376583,-22.6068402],[-52.4227958,-22.6101298],[-52.3804908,-22.6265448],[-52.3686111,-22.6293368],[-52.3419092,-22.6311169],[-52.3053745,-22.636817],[-52.3004356,-22.635445],[-52.2786947,-22.6203902],[-52.2504131,-22.6154264],[-52.240132,-22.6198836],[-52.2308583,-22.6335202],[-52.2280991,-22.6425169],[-52.2285462,-22.6646141],[-52.2273763,-22.670884],[-52.2225772,-22.6755354],[-52.2135732,-22.6719584],[-52.2054645,-22.663924],[-52.1971818,-22.6589303],[-52.1669269,-22.6508685],[-52.1577215,-22.6462148],[-52.1542902,-22.6408924],[-52.1548852,-22.6338184],[-52.1596313,-22.6182299],[-52.1623862,-22.5967797],[-52.152,-22.569],[-52.148,-22.549],[-52.135,-22.526],[-52.1253048,-22.5191982],[-52.109,-22.516],[-52.089,-22.521],[-52.0566437,-22.5387135],[-52.0152426,-22.5401867],[-51.998,-22.545],[-51.96,-22.563],[-51.94,-22.567],[-51.901,-22.601],[-51.8789728,-22.624353],[-51.8686243,-22.6304456],[-51.8470961,-22.632226],[-51.8386908,-22.6285339],[-51.8262157,-22.6273054],[-51.8181003,-22.6232944],[-51.7875684,-22.6193295],[-51.7814179,-22.615842],[-51.7716206,-22.6141269],[-51.7516244,-22.618082],[-51.7454609,-22.6245809],[-51.7357046,-22.6242925],[-51.7330367,-22.6286144],[-51.7258674,-22.6614648],[-51.7226803,-22.6660148],[-51.7181736,-22.6690211],[-51.7058429,-22.6703604],[-51.6991709,-22.6693686],[-51.6810926,-22.6607383],[-51.6623505,-22.6572441],[-51.6463861,-22.6563411],[-51.6278786,-22.6582406],[-51.6159227,-22.6625148],[-51.591,-22.685],[-51.572,-22.691],[-51.559,-22.697],[-51.537,-22.688],[-51.525,-22.686],[-51.5126395,-22.6912401],[-51.498,-22.69],[-51.471,-22.677],[-51.453,-22.655],[-51.4464346,-22.6520963],[-51.424,-22.653],[-51.411,-22.663],[-51.402,-22.667],[-51.386,-22.665],[-51.373,-22.658],[-51.311,-22.673],[-51.298,-22.673],[-51.281,-22.666],[-51.265,-22.667],[-51.242,-22.689],[-51.234,-22.709],[-51.213,-22.723],[-51.187,-22.729],[-51.156,-22.752],[-51.103,-22.762],[-51.057,-22.766],[-51.0039842,-22.793],[-50.994,-22.792],[-50.9772408,-22.786652],[-50.961,-22.786],[-50.945,-22.803],[-50.937,-22.804],[-50.895,-22.794],[-50.888,-22.796],[-50.842,-22.831],[-50.832,-22.859],[-50.823,-22.866],[-50.817,-22.879],[-50.796,-22.889],[-50.792,-22.894],[-50.793,-22.905],[-50.8031371,-22.9446611],[-50.795,-22.951],[-50.777,-22.946],[-50.758,-22.947],[-50.752167,-22.9542917],[-50.74,-22.962],[-50.729,-22.962],[-50.709,-22.953],[-50.684,-22.911],[-50.675,-22.899],[-50.657,-22.895],[-50.648,-22.897],[-50.6370199,-22.9062342],[-50.62,-22.912],[-50.608,-22.924],[-50.6022843,-22.9241212],[-50.591,-22.913],[-50.5757243,-22.9034793],[-50.554318,-22.9127058],[-50.541,-22.912],[-50.53,-22.919],[-50.5247447,-22.9379552],[-50.5145748,-22.9430707],[-50.5061536,-22.9439565],[-50.4852733,-22.937748],[-50.4782958,-22.9372789],[-50.4568382,-22.9434442],[-50.427999,-22.9421795],[-50.418901,-22.9396502],[-50.4151244,-22.9331685],[-50.4185577,-22.9165677],[-50.4142661,-22.9119824],[-50.4091163,-22.9092943],[-50.4019065,-22.9086618],[-50.3809638,-22.9091362],[-50.3720374,-22.9113499],[-50.3627677,-22.9160934],[-50.3541305,-22.9238739],[-50.345,-22.934],[-50.3399964,-22.9479851],[-50.3366752,-22.9500834],[-50.322084,-22.9515061],[-50.310411,-22.9488188],[-50.3033729,-22.9445508],[-50.3004546,-22.9391759],[-50.289997,-22.937731],[-50.2054784,-22.9498397],[-50.1969428,-22.9496092],[-50.1838966,-22.9537191],[-50.1761718,-22.9489769],[-50.1627822,-22.9454992],[-50.1501696,-22.9329701],[-50.1301217,-22.9411731],[-50.1210685,-22.9413694],[-50.1154447,-22.9398195],[-50.1097174,-22.935777],[-50.1063056,-22.9300066],[-50.0914584,-22.9199655],[-50.0813553,-22.9197232],[-50.0765664,-22.9219198],[-50.0728316,-22.925896],[-50.0668235,-22.9268446],[-50.0585984,-22.9167623],[-50.0538777,-22.902482],[-50.0499832,-22.8994775],[-50.0438999,-22.9017408],[-50.0384389,-22.9069194],[-50.0171422,-22.9082239],[-50.0100934,-22.9238969],[-49.9980771,-22.929964],[-49.9948799,-22.9300134],[-49.9894511,-22.9246281],[-49.9986376,-22.9041594],[-49.9984253,-22.9010929],[-49.9962707,-22.8982254],[-49.9913766,-22.8968018],[-49.9816151,-22.9005578],[-49.9706931,-22.9091362],[-49.9643375,-22.9179108],[-49.9589517,-22.9222983],[-49.9650885,-22.9449253],[-49.972234,-22.9508927],[-49.9741498,-22.9553732],[-49.9697663,-22.9649407],[-49.9600031,-22.9718159],[-49.9557974,-22.9775648],[-49.9426009,-22.9815751],[-49.9309923,-22.982385],[-49.9201562,-22.9899705],[-49.9138807,-22.9899128],[-49.900062,-23.001007],[-49.9012919,-23.0069785],[-49.9102184,-23.0150449],[-49.913273,-23.0230233],[-49.9134154,-23.0294506],[-49.9159018,-23.0330194],[-49.9163013,-23.0374574],[-49.9116154,-23.0524621],[-49.899311,-23.0540085],[-49.8901715,-23.0607601],[-49.8876527,-23.0652193],[-49.8836276,-23.0642623],[-49.8798908,-23.0595102],[-49.8747474,-23.0673333],[-49.8678684,-23.0719102],[-49.8590161,-23.0712383],[-49.8514571,-23.0741087],[-49.8415176,-23.0706819],[-49.8336586,-23.0659429],[-49.8282965,-23.0752401],[-49.8226804,-23.0756326],[-49.812126,-23.0807663],[-49.8081319,-23.0939237],[-49.8057723,-23.094605],[-49.8011094,-23.0927385],[-49.7973151,-23.0936958],[-49.7928695,-23.097192],[-49.7922044,-23.1020209],[-49.7772306,-23.1010942],[-49.7633279,-23.1048004],[-49.755729,-23.1026673],[-49.7509741,-23.0972685],[-49.740403,-23.0985001],[-49.7367458,-23.1030754],[-49.7250457,-23.1091697],[-49.725614,-23.1161652],[-49.7349377,-23.1329098],[-49.7304745,-23.1415622],[-49.7164788,-23.1484048],[-49.7146135,-23.1539188],[-49.7098843,-23.1566876],[-49.701357,-23.1530698],[-49.7035647,-23.1582452],[-49.6975136,-23.1650021],[-49.6884263,-23.1653276],[-49.6833821,-23.1637965],[-49.678411,-23.1650045],[-49.6792888,-23.1690465],[-49.6832724,-23.1735784],[-49.6825361,-23.1751319],[-49.6776713,-23.1749595],[-49.6666437,-23.1888087],[-49.6632035,-23.1941955],[-49.6614246,-23.2016089],[-49.6537587,-23.2120295],[-49.6523883,-23.2189407],[-49.6547424,-23.2281509],[-49.6531506,-23.2343277],[-49.6515699,-23.2369506],[-49.6444809,-23.2402173],[-49.6470866,-23.2517017],[-49.6400751,-23.2563253],[-49.6351663,-23.2712908],[-49.6291387,-23.2767373],[-49.6264887,-23.2828032],[-49.6258007,-23.2866491],[-49.6314669,-23.3042857],[-49.6288061,-23.3110647],[-49.623295,-23.3184138],[-49.6216944,-23.3318866],[-49.6294178,-23.3437576],[-49.6312953,-23.3441778],[-49.6362121,-23.3397705],[-49.6379012,-23.3425511],[-49.6370958,-23.3516199],[-49.6334367,-23.3564211],[-49.6209306,-23.3567732],[-49.6118066,-23.3546535],[-49.6041569,-23.3589475],[-49.5954121,-23.3670914],[-49.5959895,-23.3760196],[-49.5904025,-23.3827925],[-49.5924735,-23.3895743],[-49.6011001,-23.3839676],[-49.6128056,-23.3878506],[-49.6206069,-23.3887184],[-49.6210117,-23.3974193],[-49.6152972,-23.3976749],[-49.6078503,-23.3933428],[-49.5985165,-23.3981866],[-49.5994857,-23.4004828],[-49.604743,-23.4028408],[-49.603676,-23.407812],[-49.5934361,-23.4067069],[-49.589327,-23.4161429],[-49.580293,-23.4141986],[-49.5783765,-23.4215456],[-49.58179,-23.4289548],[-49.5808046,-23.4317181],[-49.575543,-23.4313959],[-49.5691458,-23.4254571],[-49.5666241,-23.4264201],[-49.572375,-23.4362344],[-49.5690191,-23.4403042],[-49.5729514,-23.443944],[-49.5756191,-23.4435844],[-49.5779108,-23.4377379],[-49.5799868,-23.4367388],[-49.5901066,-23.435871],[-49.5956401,-23.4403824],[-49.5981579,-23.446172],[-49.603186,-23.4512926],[-49.597904,-23.4579152],[-49.6012211,-23.4612625],[-49.6025725,-23.4706395],[-49.5985768,-23.4771574],[-49.6032894,-23.4784236],[-49.6148803,-23.472201],[-49.6127029,-23.4828685],[-49.6133996,-23.4868313],[-49.6160428,-23.4900306],[-49.6210967,-23.492099],[-49.6183059,-23.5017212],[-49.6128168,-23.5082723],[-49.6148352,-23.5102943],[-49.6217511,-23.5059441],[-49.6272659,-23.5084303],[-49.6293703,-23.5118275],[-49.6282756,-23.5170864],[-49.6242171,-23.5233026],[-49.6074397,-23.5305711],[-49.6029191,-23.5357518],[-49.6051027,-23.5496027],[-49.598,-23.553],[-49.5973295,-23.5558847],[-49.5991316,-23.5591045],[-49.6077838,-23.5637192],[-49.6080349,-23.566343],[-49.6008116,-23.5741668],[-49.6014579,-23.5831678],[-49.6069033,-23.5858241],[-49.6081227,-23.5895226],[-49.6152494,-23.5904055],[-49.6173431,-23.592018],[-49.6206084,-23.6028196],[-49.6213766,-23.6113883],[-49.6131969,-23.6143355],[-49.6162825,-23.6164933],[-49.613559,-23.6188358],[-49.6144442,-23.6230106],[-49.6064168,-23.6240555],[-49.6087829,-23.6283435],[-49.6076131,-23.63397],[-49.617298,-23.638981],[-49.6025807,-23.6445841],[-49.6026442,-23.6515177],[-49.5851154,-23.6588831],[-49.586044,-23.6645242],[-49.5840354,-23.6647542],[-49.5823782,-23.6624051],[-49.5794366,-23.6638215],[-49.5811001,-23.6657385],[-49.5843659,-23.6658877],[-49.5820973,-23.667316],[-49.5840893,-23.6697403],[-49.5811635,-23.6711049],[-49.5799891,-23.6788671],[-49.5773797,-23.6793037],[-49.575739,-23.6754928],[-49.574,-23.676],[-49.5758115,-23.6807385],[-49.5726582,-23.6810154],[-49.5723126,-23.6834285],[-49.5695566,-23.6838556],[-49.5679355,-23.6896517],[-49.5663294,-23.6883578],[-49.5670131,-23.6853475],[-49.5607906,-23.6857629],[-49.5636607,-23.6874227],[-49.5612704,-23.6930498],[-49.55955,-23.6929353],[-49.5607559,-23.6900041],[-49.5559451,-23.689811],[-49.5579481,-23.6931159],[-49.5542332,-23.6942938],[-49.5530305,-23.697662],[-49.555967,-23.6996092],[-49.5553978,-23.7020385],[-49.5501807,-23.7025415],[-49.5491813,-23.7040733],[-49.5534984,-23.7107888],[-49.5552623,-23.7216943],[-49.5532619,-23.7273541],[-49.5489956,-23.7321186],[-49.5487531,-23.7362736],[-49.5511374,-23.738589],[-49.556762,-23.7361884],[-49.5612139,-23.7314896],[-49.5646525,-23.7331731],[-49.5681342,-23.7381188],[-49.5636783,-23.7480589],[-49.5638424,-23.7511015],[-49.566759,-23.7539559],[-49.5717661,-23.7536608],[-49.5736283,-23.7562825],[-49.5601104,-23.7611092],[-49.5632077,-23.7643454],[-49.5614984,-23.7675056],[-49.562269,-23.7702813],[-49.5660826,-23.7711591],[-49.5649271,-23.7757204],[-49.5675704,-23.7777003],[-49.5645932,-23.7814077],[-49.5644257,-23.7866797],[-49.5610039,-23.7889801],[-49.559465,-23.7927375],[-49.5632511,-23.8018888],[-49.5609228,-23.8067014],[-49.5605718,-23.8158033],[-49.5629221,-23.8193114],[-49.5690462,-23.8214792],[-49.5729128,-23.8275177],[-49.5909771,-23.8281419],[-49.5944533,-23.8341268],[-49.5865889,-23.8421886],[-49.5903208,-23.8416688],[-49.5988368,-23.8364569],[-49.6086139,-23.8393596],[-49.6067844,-23.8417468],[-49.5970699,-23.8454246],[-49.5959601,-23.8487344],[-49.6017341,-23.8497053],[-49.6072829,-23.8477782],[-49.6103549,-23.849058],[-49.6110143,-23.8525149],[-49.5994663,-23.8577221],[-49.6026991,-23.8684447],[-49.5916343,-23.875164],[-49.5915539,-23.8791202],[-49.5858603,-23.8905175],[-49.5785423,-23.880135],[-49.5737011,-23.8772378],[-49.5763066,-23.8836646],[-49.575985,-23.8916646],[-49.5777542,-23.896429],[-49.5742962,-23.8996935],[-49.5683774,-23.8994288],[-49.5687795,-23.9025314],[-49.5642761,-23.9115007],[-49.5537736,-23.9160439],[-49.5535805,-23.9177347],[-49.5576658,-23.9216455],[-49.5569259,-23.9231745],[-49.5466968,-23.9227628],[-49.5406508,-23.9274634],[-49.5347303,-23.9281215],[-49.5321339,-23.9308257],[-49.5308089,-23.927337],[-49.5315358,-23.9223746],[-49.5276895,-23.922735],[-49.5242307,-23.9162507],[-49.5232096,-23.9187245],[-49.5199196,-23.9196911],[-49.5173137,-23.9232786],[-49.5112985,-23.9249686],[-49.5163418,-23.9297553],[-49.5144743,-23.9318088],[-49.5114793,-23.9308921],[-49.5090432,-23.9322978],[-49.509877,-23.9373052],[-49.5172256,-23.9377267],[-49.5249187,-23.9343313],[-49.5231471,-23.9424948],[-49.5203893,-23.9476265],[-49.5172468,-23.9467214],[-49.5158118,-23.9441397],[-49.5117087,-23.9447569],[-49.5111622,-23.9477442],[-49.5035508,-23.9468781],[-49.5052097,-23.9551099],[-49.4982575,-23.9588177],[-49.5090102,-23.9640087],[-49.513645,-23.9646575],[-49.5166113,-23.9717951],[-49.5135523,-23.9705901],[-49.5129034,-23.972444],[-49.5078979,-23.9729075],[-49.5067669,-23.9682642],[-49.5049972,-23.968002],[-49.4982622,-23.9709411],[-49.4964082,-23.9743708],[-49.4931639,-23.975854],[-49.4953979,-23.9843428],[-49.4939702,-23.9854646],[-49.4981514,-23.9927053],[-49.4958058,-23.994745],[-49.490967,-23.9927525],[-49.4889351,-23.9988938],[-49.4862646,-23.9981135],[-49.4860546,-24.0067123],[-49.480531,-24.0050226],[-49.4829403,-24.0116987],[-49.4885022,-24.011768],[-49.4925827,-24.0143829],[-49.4857541,-24.0158664],[-49.4901508,-24.0183108],[-49.4899545,-24.0204187],[-49.4878119,-24.0218191],[-49.4881091,-24.0243777],[-49.4817576,-24.0241425],[-49.4794188,-24.0184979],[-49.4737754,-24.0189487],[-49.4731695,-24.0263655],[-49.4694466,-24.0238176],[-49.4646868,-24.0242405],[-49.4628736,-24.0258672],[-49.4611355,-24.0323346],[-49.4632064,-24.0383805],[-49.4571607,-24.0450236],[-49.4578474,-24.0492073],[-49.452719,-24.0535867],[-49.4532447,-24.0548897],[-49.4480748,-24.0576066],[-49.4379508,-24.0583333],[-49.4411426,-24.0630602],[-49.4390934,-24.0693494],[-49.433902,-24.0673199],[-49.4287108,-24.069067],[-49.4318463,-24.0700138],[-49.4362983,-24.0744919],[-49.4292172,-24.07698],[-49.4288058,-24.0788886],[-49.4307944,-24.0783416],[-49.4325324,-24.0839639],[-49.4305369,-24.0879994],[-49.4264347,-24.086989],[-49.4230015,-24.0920136],[-49.4205124,-24.0899372],[-49.4157166,-24.0914357],[-49.4167036,-24.093659],[-49.4140145,-24.0947085],[-49.4147011,-24.0962559],[-49.4130381,-24.0955507],[-49.4133815,-24.0928378],[-49.4114143,-24.0922487],[-49.4102606,-24.0944256],[-49.4045957,-24.0952483],[-49.4046601,-24.0971679],[-49.4083079,-24.0975792],[-49.4047009,-24.1026631],[-49.4086298,-24.1056491],[-49.4091296,-24.1080744],[-49.403349,-24.1086566],[-49.3997028,-24.1116811],[-49.3923858,-24.1140215],[-49.3918601,-24.1175664],[-49.3894461,-24.1194857],[-49.3878137,-24.115864],[-49.3831804,-24.1148245],[-49.3783203,-24.1179875],[-49.3751982,-24.1181539],[-49.3708836,-24.1135138],[-49.3675485,-24.1187317],[-49.3640724,-24.1177035],[-49.3622683,-24.1189975],[-49.3621627,-24.1208762],[-49.3651882,-24.1222568],[-49.3620339,-24.1280731],[-49.3588582,-24.1283473],[-49.3560258,-24.1312749],[-49.3528393,-24.1305797],[-49.3511656,-24.1330569],[-49.3475264,-24.1320094],[-49.3434087,-24.13477],[-49.3419474,-24.1387945],[-49.338482,-24.1357397],[-49.3365315,-24.1360428],[-49.335389,-24.1409277],[-49.3367139,-24.1449815],[-49.3318516,-24.1499749],[-49.3335468,-24.1530195],[-49.3390206,-24.154977],[-49.340351,-24.1663811],[-49.3389884,-24.1727925],[-49.3417436,-24.1849786],[-49.3467132,-24.192054],[-49.3453399,-24.1987087],[-49.3411235,-24.2022708],[-49.3516374,-24.2081614],[-49.3537403,-24.207633],[-49.3564868,-24.2109208],[-49.35161,-24.2193271],[-49.3361196,-24.2264693],[-49.3342519,-24.2287086],[-49.3349666,-24.2302618],[-49.3224845,-24.2357333],[-49.3208269,-24.2346754],[-49.3219185,-24.2383712],[-49.3203081,-24.2372392],[-49.318686,-24.2390431],[-49.3202107,-24.2431597],[-49.3158122,-24.2423111],[-49.3151452,-24.2441506],[-49.3130508,-24.2413875],[-49.3116929,-24.2463045],[-49.3080331,-24.2475985],[-49.3079522,-24.2505868],[-49.3044585,-24.2511326],[-49.3061228,-24.2567488],[-49.3090775,-24.2586894],[-49.3075344,-24.2600033],[-49.3056776,-24.2583653],[-49.302632,-24.2584899],[-49.3029799,-24.2623534],[-49.3004881,-24.2618722],[-49.3017691,-24.2649726],[-49.2996537,-24.2669309],[-49.2984101,-24.2662591],[-49.2987215,-24.2709756],[-49.3016017,-24.2752065],[-49.2977281,-24.2784583],[-49.2978139,-24.2831823],[-49.2946336,-24.2846546],[-49.2963016,-24.2870852],[-49.2997225,-24.2854272],[-49.2981216,-24.288891],[-49.2955488,-24.289801],[-49.2933571,-24.2881048],[-49.2916514,-24.2906396],[-49.288016,-24.2916401],[-49.2906175,-24.2926169],[-49.2904478,-24.297248],[-49.2868847,-24.2980366],[-49.2860555,-24.3046258],[-49.281873,-24.3056115],[-49.2844423,-24.3076681],[-49.2812766,-24.3095704],[-49.2793017,-24.3049904],[-49.2781732,-24.3061809],[-49.2748858,-24.3047697],[-49.2743649,-24.3064349],[-49.2710373,-24.3060958],[-49.2676842,-24.3094341],[-49.2611235,-24.3124016],[-49.258157,-24.3168502],[-49.2504366,-24.3193643],[-49.2494046,-24.3254573],[-49.2504582,-24.3287898],[-49.2488757,-24.3305126],[-49.2447022,-24.3321752],[-49.2360595,-24.3296043],[-49.2312127,-24.3303952],[-49.2242872,-24.3402284],[-49.2059465,-24.338254],[-49.2012106,-24.3427002],[-49.2011118,-24.3451066],[-49.2065661,-24.3483834],[-49.2084608,-24.3522599],[-49.2161546,-24.3558903],[-49.2316478,-24.3750614],[-49.2378191,-24.3790201],[-49.2394566,-24.3845021],[-49.2476759,-24.3927177],[-49.2535003,-24.4050385],[-49.2534772,-24.4094436],[-49.2502344,-24.4138649],[-49.2473988,-24.4062994],[-49.2430967,-24.4018887],[-49.2378503,-24.4044728],[-49.2355492,-24.4095521],[-49.2406832,-24.4220148],[-49.2532326,-24.4359366],[-49.2505178,-24.4454195],[-49.2545758,-24.4498893],[-49.251096,-24.4518879],[-49.2537057,-24.4554122],[-49.2452729,-24.4582851],[-49.244456,-24.4646952],[-49.2483603,-24.4635487],[-49.2470266,-24.4692575],[-49.2491802,-24.4716165],[-49.2545322,-24.4698026],[-49.253359,-24.4731763],[-49.2589806,-24.4719221],[-49.2610067,-24.4735155],[-49.2641525,-24.4733219],[-49.2656453,-24.4796363],[-49.270653,-24.4807267],[-49.2716074,-24.4827267],[-49.2695278,-24.4847353],[-49.2714819,-24.4896712],[-49.2692501,-24.4924781],[-49.2719075,-24.4915972],[-49.281445,-24.4952647],[-49.2848272,-24.4933881],[-49.285605,-24.4960632],[-49.2886844,-24.4964313],[-49.2917246,-24.5002886],[-49.2950116,-24.4994942],[-49.2962404,-24.5006362],[-49.2947775,-24.5060107],[-49.2896554,-24.5095069],[-49.2895516,-24.5136447],[-49.2868049,-24.5129554],[-49.2862292,-24.5188411],[-49.2882159,-24.5237787],[-49.2869848,-24.5250182],[-49.2888566,-24.5263496],[-49.2853495,-24.5284809],[-49.2826819,-24.5326485],[-49.2835364,-24.5334464],[-49.280254,-24.5334108],[-49.2794956,-24.5359603],[-49.2842612,-24.5410789],[-49.2894943,-24.5434564],[-49.291692,-24.542804],[-49.2932774,-24.5476596],[-49.2919079,-24.550571],[-49.2935045,-24.5515696],[-49.292875,-24.5530894],[-49.2962584,-24.552267],[-49.2971977,-24.5497643],[-49.3029915,-24.5502076],[-49.3053145,-24.5456616],[-49.307144,-24.5502301],[-49.3088988,-24.5486637],[-49.3117235,-24.549946],[-49.3096638,-24.5511898],[-49.3097506,-24.5530425],[-49.3167289,-24.5545132],[-49.3147456,-24.5624423],[-49.3181436,-24.5639741],[-49.3174724,-24.5659119],[-49.3186417,-24.5665789],[-49.3128554,-24.5698953],[-49.3147146,-24.5729009],[-49.3116463,-24.5748827],[-49.3129076,-24.5790755],[-49.3109173,-24.5804847],[-49.3137056,-24.5822963],[-49.3125888,-24.5823966],[-49.312395,-24.5866032],[-49.3155412,-24.5859349],[-49.3165375,-24.5886096],[-49.3067207,-24.593262],[-49.3032033,-24.5965542],[-49.3092783,-24.6026976],[-49.3081421,-24.6039333],[-49.3114501,-24.6025574],[-49.3127745,-24.6040641],[-49.3110525,-24.6051572],[-49.3136072,-24.6089204],[-49.3115515,-24.6107188],[-49.3146787,-24.6138531],[-49.3069632,-24.6220053],[-49.3094434,-24.6243467],[-49.3121237,-24.6311828],[-49.3141983,-24.6318562],[-49.3121799,-24.6344383],[-49.3134964,-24.6351571],[-49.3126514,-24.6375751],[-49.3155751,-24.6374935],[-49.3167338,-24.6395775],[-49.313104,-24.6419254],[-49.3113864,-24.6397806],[-49.3072002,-24.6398533],[-49.3082896,-24.6418073],[-49.3061709,-24.6434141],[-49.3098668,-24.6461322],[-49.3010214,-24.6497573],[-49.301074,-24.6521233],[-49.2987743,-24.6548304],[-49.3042144,-24.658514],[-49.3068059,-24.6572415],[-49.3087267,-24.6615271],[-49.3118372,-24.6627226],[-49.3115399,-24.6644038],[-49.3078853,-24.6652231],[-49.3075929,-24.6670057],[-49.3042005,-24.6689678],[-49.3048764,-24.6735414],[-49.303348,-24.6726758],[-49.2939801,-24.6754836],[-49.2871385,-24.6844826],[-49.2776879,-24.6926255],[-49.2735504,-24.6944077],[-49.2708903,-24.6928532],[-49.2619061,-24.692329],[-49.2565057,-24.6961307],[-49.2429581,-24.6962986],[-49.2312201,-24.6991668],[-49.2277587,-24.697773],[-49.2213268,-24.6986946],[-49.2151798,-24.7026115],[-49.2091661,-24.7020908],[-49.2049475,-24.6979826],[-49.2065087,-24.6877882],[-49.2050776,-24.6854609],[-49.1935514,-24.6824035],[-49.1913094,-24.6769994],[-49.1868316,-24.6730015],[-49.1809148,-24.6714466],[-49.1748219,-24.6716308],[-49.1700558,-24.6752285],[-49.1616379,-24.6709],[-49.1525387,-24.6720636],[-49.147632,-24.6749788],[-49.1358491,-24.6749248],[-49.1315803,-24.6809462],[-49.1257801,-24.6842414],[-49.1231092,-24.6821412],[-49.1193855,-24.6853381],[-49.1110164,-24.6880813],[-49.109009,-24.6863647],[-49.1095601,-24.6779603],[-49.108399,-24.6757787],[-49.1022196,-24.6749382],[-49.0992283,-24.6772093],[-49.0970832,-24.6817334],[-49.0855706,-24.680142],[-49.0839765,-24.6779961],[-49.0835829,-24.6718623],[-49.0747468,-24.6734897],[-49.0717358,-24.676637],[-49.0694923,-24.6845408],[-49.0625454,-24.6857568],[-49.0516626,-24.6804638],[-49.0470182,-24.6742229],[-49.045306,-24.66546],[-49.0401303,-24.662366],[-49.0373358,-24.6578233],[-49.0395005,-24.6527259],[-49.0346397,-24.6501682],[-49.033144,-24.6407239],[-49.0349349,-24.6402767],[-49.0402287,-24.6438184],[-49.0417243,-24.6412247],[-49.0394021,-24.6361267],[-49.031176,-24.6334971],[-49.0229343,-24.6402077],[-49.0171939,-24.6422718],[-49.0121287,-24.6395398],[-49.0073955,-24.633638],[-49.004652,-24.6329788],[-48.9988236,-24.6366793],[-48.9999055,-24.6385226],[-49.0046545,-24.6379909],[-49.0065902,-24.6482923],[-49.010711,-24.6554977],[-49.0091145,-24.6600282],[-49.0014192,-24.655183],[-48.9909867,-24.6550297],[-48.9888203,-24.6577102],[-48.988208,-24.6659303],[-48.9776349,-24.6651994],[-48.9739412,-24.6665022],[-48.9753321,-24.6690599],[-48.973844,-24.6724472],[-48.963223,-24.6733393],[-48.961009,-24.6781821],[-48.9612968,-24.6842993],[-48.958487,-24.6855674],[-48.9557607,-24.685105],[-48.9486189,-24.6742638],[-48.9423586,-24.6727259],[-48.9328888,-24.6753572],[-48.9212311,-24.6759453],[-48.9155435,-24.6828767],[-48.9129297,-24.6820001],[-48.9099885,-24.6777296],[-48.9125456,-24.6726133],[-48.9061523,-24.6705834],[-48.8902461,-24.6692885],[-48.8848157,-24.6705134],[-48.8789987,-24.6684743],[-48.8692561,-24.6697435],[-48.8646625,-24.66751],[-48.8529931,-24.6757177],[-48.8481061,-24.6736676],[-48.8471815,-24.6709992],[-48.8562511,-24.6654821],[-48.8592832,-24.6610309],[-48.8589707,-24.6580522],[-48.854854,-24.6557181],[-48.8505917,-24.6577363],[-48.8445392,-24.6647041],[-48.8413117,-24.6655268],[-48.8311964,-24.6556186],[-48.8280068,-24.6549564],[-48.8212779,-24.6569779],[-48.8199396,-24.6599468],[-48.8209353,-24.6628138],[-48.8159678,-24.6647158],[-48.8111585,-24.6759146],[-48.8042933,-24.6769704],[-48.7999152,-24.6746106],[-48.7838628,-24.6844377],[-48.7793688,-24.6965258],[-48.7748167,-24.6948553],[-48.7693133,-24.695524],[-48.7583967,-24.679804],[-48.7530458,-24.682118],[-48.7530636,-24.687566],[-48.7562532,-24.6918156],[-48.7508379,-24.6954139],[-48.7438706,-24.6929669],[-48.7407817,-24.6873631],[-48.7355019,-24.6846833],[-48.7308677,-24.6872739],[-48.7191842,-24.6831829],[-48.7086659,-24.6835706],[-48.7029077,-24.6800764],[-48.7009674,-24.6807482],[-48.7001843,-24.6852893],[-48.6910769,-24.6941992],[-48.6892641,-24.6908117],[-48.6912557,-24.6844746],[-48.6884256,-24.6783631],[-48.6942712,-24.6722377],[-48.6900649,-24.6680634],[-48.6862668,-24.6706902],[-48.6788265,-24.6716825],[-48.6754512,-24.6738127],[-48.6779891,-24.6749139],[-48.672284,-24.6793485],[-48.6757945,-24.6841167],[-48.6727937,-24.6881233],[-48.6772967,-24.693025],[-48.67171,-24.698207],[-48.6735273,-24.6991882],[-48.6766403,-24.698041],[-48.6772444,-24.6997375],[-48.6724626,-24.7038102],[-48.6699363,-24.7032615],[-48.6618164,-24.7073706],[-48.6599945,-24.7061554],[-48.6621564,-24.704006],[-48.6620701,-24.7015354],[-48.6586411,-24.6953022],[-48.6591977,-24.6925432],[-48.6565762,-24.6911297],[-48.6419218,-24.6899016],[-48.6421681,-24.6862327],[-48.645693,-24.6820567],[-48.6386814,-24.6778966],[-48.6324165,-24.6771372],[-48.6314719,-24.6799461],[-48.6283362,-24.6805407],[-48.6245143,-24.6782473],[-48.616963,-24.6683684],[-48.6129352,-24.6710817],[-48.6046579,-24.6683932],[-48.5965026,-24.6720069],[-48.591694,-24.6762507],[-48.5898129,-24.6805116],[-48.5869526,-24.6785276],[-48.5853774,-24.6720355],[-48.5817363,-24.6711853],[-48.5797321,-24.6853858],[-48.5701495,-24.6951964],[-48.5686761,-24.7026514],[-48.5606765,-24.7110582],[-48.5530441,-24.7100004],[-48.5526847,-24.7170006],[-48.546042,-24.7186901],[-48.5468843,-24.7213944],[-48.5438254,-24.7264026],[-48.5365274,-24.7273241],[-48.5313792,-24.7305054],[-48.5303361,-24.7319584],[-48.5327371,-24.7371072],[-48.5299513,-24.7396312],[-48.5234084,-24.7361011],[-48.5123148,-24.7410122],[-48.5058487,-24.7352745],[-48.500481,-24.7372694],[-48.5004811,-24.7396268],[-48.5044837,-24.7397019],[-48.5031608,-24.7470019],[-48.5079426,-24.7513378],[-48.5081312,-24.7619658],[-48.5067724,-24.7641394],[-48.5088986,-24.7652885],[-48.5100655,-24.7638141],[-48.5131496,-24.7642606],[-48.5176692,-24.7691673],[-48.5181216,-24.7748949],[-48.5159711,-24.7795461],[-48.5275559,-24.7829174],[-48.5303172,-24.7861687],[-48.5348182,-24.7863623],[-48.5369338,-24.7898025],[-48.5483991,-24.7963276],[-48.556113,-24.8064489],[-48.5558538,-24.81078],[-48.5595657,-24.8206003],[-48.5560252,-24.8242445],[-48.5626125,-24.827293],[-48.5639005,-24.8370999],[-48.568106,-24.8481176],[-48.5643746,-24.8566295],[-48.566876,-24.864539],[-48.548918,-24.8674822],[-48.5467697,-24.8736013],[-48.5499495,-24.878999],[-48.547019,-24.8798135],[-48.5452482,-24.8768571],[-48.5445195,-24.8784289],[-48.5482444,-24.8821302],[-48.5547442,-24.8816005],[-48.5585188,-24.8843775],[-48.5596518,-24.8894362],[-48.5566108,-24.8948266],[-48.5595105,-24.9011106],[-48.5615012,-24.9008037],[-48.5624598,-24.8962092],[-48.5646934,-24.894577],[-48.5725932,-24.8956675],[-48.5729832,-24.9026796],[-48.5672032,-24.9032925],[-48.5664351,-24.916806],[-48.5647528,-24.9176376],[-48.5670375,-24.9198489],[-48.5711338,-24.9195816],[-48.571857,-24.9240727],[-48.5693085,-24.9285844],[-48.5706949,-24.9308423],[-48.5665204,-24.9310764],[-48.567242,-24.9337777],[-48.5625747,-24.939097],[-48.5697766,-24.943721],[-48.5691622,-24.9465747],[-48.5628365,-24.9503468],[-48.5702469,-24.9512259],[-48.5725784,-24.9538015],[-48.5677896,-24.960165],[-48.567188,-24.9725612],[-48.5793046,-24.986841],[-48.5870474,-24.985702],[-48.589692,-24.9871282],[-48.5906365,-24.9887315],[-48.589153,-24.9948012],[-48.5906981,-24.9965064],[-48.5955395,-24.9962076],[-48.598083,-25.004542],[-48.6002884,-25.0069041],[-48.6007055,-25.0105801],[-48.5991844,-25.0107283],[-48.5968536,-25.015301],[-48.5991799,-25.0191482],[-48.5883321,-25.0193291],[-48.588545,-25.0247263],[-48.5924696,-25.0274581],[-48.5875082,-25.0273564],[-48.5897959,-25.0294292],[-48.5842854,-25.0298907],[-48.585112,-25.0311843],[-48.5805283,-25.0347398],[-48.5843086,-25.0386964],[-48.5839348,-25.0412756],[-48.5818725,-25.0409049],[-48.5829329,-25.0418429],[-48.5800329,-25.047229],[-48.5829935,-25.0507353],[-48.5812714,-25.0505718],[-48.5794397,-25.0533371],[-48.5778658,-25.0513647],[-48.5756762,-25.0517027],[-48.576242,-25.0497997],[-48.5742209,-25.0510331],[-48.5739362,-25.0497255],[-48.5686745,-25.0503458],[-48.5692862,-25.0543062],[-48.5665837,-25.0544361],[-48.5654068,-25.058034],[-48.561167,-25.0590589],[-48.5610603,-25.0606759],[-48.5587896,-25.0603284],[-48.5569862,-25.0628445],[-48.5591741,-25.0647558],[-48.557589,-25.0683362],[-48.5589269,-25.0716844],[-48.5576587,-25.0729188],[-48.5599059,-25.0741182],[-48.5603112,-25.0776062],[-48.5577391,-25.0796417],[-48.5560178,-25.0844584],[-48.5445053,-25.0939065],[-48.5351845,-25.0978067],[-48.5276759,-25.098798],[-48.526509,-25.0962783],[-48.5274375,-25.0943896],[-48.5203155,-25.0907237],[-48.5225736,-25.0878551],[-48.5214797,-25.0831165],[-48.5093622,-25.0824624],[-48.5089795,-25.0783584],[-48.5110654,-25.0756767],[-48.5078547,-25.0721534],[-48.5091701,-25.0683667],[-48.502991,-25.0637501],[-48.5003835,-25.0594282],[-48.4951557,-25.0577696],[-48.4914035,-25.0519689],[-48.4836016,-25.0526581],[-48.4834729,-25.0502281],[-48.4873576,-25.0448425],[-48.4868192,-25.0411239],[-48.4859834,-25.0393589],[-48.4810713,-25.0383009],[-48.4788604,-25.0345569],[-48.4797002,-25.0298237],[-48.4752416,-25.0201811],[-48.4747286,-25.013304],[-48.4653047,-25.0099975],[-48.4644455,-25.0050359],[-48.4556125,-25.0044979],[-48.4531477,-25.0012523],[-48.4457596,-24.9978945],[-48.4443204,-24.9951803],[-48.4409192,-24.9952417],[-48.4345207,-24.9906704],[-48.4182636,-24.9895588],[-48.4140684,-24.9865527],[-48.4138624,-24.9826773],[-48.411815,-24.9803531],[-48.4055312,-24.982518],[-48.4037236,-24.9851308],[-48.4003638,-24.9852706],[-48.3954187,-24.98874],[-48.3951173,-24.9912888],[-48.3923269,-24.9907164],[-48.3857974,-24.9950962],[-48.3804806,-24.9955081],[-48.3783938,-24.9971143],[-48.377452,-25.0033515],[-48.3742348,-25.0042152],[-48.3699097,-25.0082631],[-48.3664832,-25.0142852],[-48.3580972,-25.0164557],[-48.3564995,-25.0239991],[-48.3500545,-25.02707],[-48.3524054,-25.0333752],[-48.3508671,-25.036741],[-48.3491279,-25.0369988],[-48.3478316,-25.0350895],[-48.3432966,-25.0377609],[-48.3392089,-25.0362167],[-48.3358327,-25.0402624],[-48.3336293,-25.0363332],[-48.3237,-25.0374091],[-48.3234045,-25.0428095],[-48.3265772,-25.0509076],[-48.3239252,-25.0546058],[-48.3148034,-25.0476637],[-48.3095383,-25.0478752],[-48.3073484,-25.0438196],[-48.3086152,-25.0379766],[-48.307686,-25.0360736],[-48.2987455,-25.035424],[-48.2968591,-25.0306518],[-48.2998767,-25.0253823],[-48.297757,-25.0240261],[-48.2933771,-25.0245691],[-48.292212,-25.0289158],[-48.2898024,-25.0308391],[-48.2899884,-25.0390547],[-48.2873959,-25.0411733],[-48.2806029,-25.0356705],[-48.278419,-25.0331939],[-48.278899,-25.0302958],[-48.27671,-25.028497],[-48.2782918,-25.019655],[-48.2721739,-25.0141463],[-48.2732368,-25.0054843],[-48.2709962,-25.0033586],[-48.2701407,-24.9981538],[-48.2666035,-24.9969067],[-48.264395,-24.9933466],[-48.2598146,-24.9985054],[-48.2552367,-24.996672],[-48.2596914,-24.9911212],[-48.2578225,-24.9887765],[-48.2593621,-24.9867745],[-48.2506538,-24.9776526],[-48.2493388,-24.9846853],[-48.2463988,-24.9873201],[-48.2461388,-24.9896526],[-48.2366002,-24.9938329],[-48.2354462,-24.9953997],[-48.2362247,-24.9982207],[-48.2336824,-25.0007543],[-48.2280672,-24.9999364],[-48.233702,-25.0073965],[-48.2298963,-25.0092929],[-48.2266548,-25.0067869],[-48.2231127,-25.0084083],[-48.2325919,-25.0158315],[-48.2335095,-25.0177527],[-48.2311763,-25.0188915],[-48.2315019,-25.0211536],[-48.2284942,-25.0232182],[-48.2240072,-25.0232337],[-48.2155988,-25.0297993],[-48.210365,-25.0273549],[-48.209031,-25.02853],[-48.2094108,-25.0358196],[-48.2114844,-25.038295],[-48.2146982,-25.038978],[-48.2159591,-25.0423586],[-48.2148172,-25.0525615],[-48.2115852,-25.0592327],[-48.2121384,-25.0641161],[-48.2161384,-25.0668623],[-48.2154753,-25.0707754],[-48.2130928,-25.072725],[-48.2162228,-25.0771514],[-48.2099971,-25.0799131],[-48.2129739,-25.0823514],[-48.2127507,-25.0843325],[-48.2042006,-25.0934212],[-48.2052617,-25.098621],[-48.1950789,-25.1062253],[-48.1941749,-25.1145644],[-48.189841,-25.1172797],[-48.1877217,-25.124991],[-48.1810907,-25.1297288],[-48.1815366,-25.1342284],[-48.1776434,-25.135664],[-48.1716939,-25.142192],[-48.1648876,-25.1454368],[-48.1619354,-25.1462014],[-48.1563863,-25.1443804],[-48.1585942,-25.1503912],[-48.1625568,-25.1549122],[-48.1672676,-25.1552821],[-48.1690087,-25.1571653],[-48.1670229,-25.1667286],[-48.1730073,-25.172099],[-48.1758416,-25.1777529],[-48.1793333,-25.1798589],[-48.1785247,-25.1835342],[-48.1863823,-25.1877086],[-48.1901769,-25.1874378],[-48.1937063,-25.1900857],[-48.1917267,-25.1959678],[-48.1836962,-25.2040268],[-48.1864382,-25.2072825],[-48.1815222,-25.2105638],[-48.1813114,-25.2067968],[-48.1780978,-25.2062798],[-48.1732266,-25.2094127],[-48.1657261,-25.2082042],[-48.1623839,-25.2094666],[-48.1600448,-25.2149442],[-48.157737,-25.2152247],[-48.1583947,-25.2172316],[-48.1512416,-25.2292036],[-48.1444454,-25.2327481],[-48.1378946,-25.2336108],[-48.1318637,-25.2403337],[-48.1266997,-25.2397009],[-48.1264393,-25.2419156],[-48.1150442,-25.2510675],[-48.1098098,-25.2490763],[-48.105877,-25.2435734],[-48.1011663,-25.2444692],[-48.0936007,-25.2408898],[-48.0921751,-25.2419322],[-48.0833489,-25.2408513],[-48.0836038,-25.2436613],[-48.081,-25.244],[-48.0760691,-25.2409343],[-48.0631516,-25.2404332],[-48.0586973,-25.2384678],[-48.0570768,-25.2328471],[-48.0600064,-25.2278812],[-48.0571711,-25.2265781],[-48.0587053,-25.2235681],[-48.0575936,-25.2183913],[-48.0504377,-25.2254232],[-48.0463797,-25.2269805],[-48.0447042,-25.2216463],[-48.04069,-25.2190711],[-48.0316376,-25.2187436],[-48.027565,-25.2204034],[-48.0269812,-25.2222382],[-48.0298466,-25.2266929],[-48.028347,-25.2289049],[-48.0236518,-25.2299607],[-48.0252533,-25.2334318],[-48.0314839,-25.2395672],[-48.0473496,-25.2505654],[-48.0613008,-25.2674158],[-48.0759457,-25.2756486],[-48.083,-25.282],[-48.0968266,-25.2976329],[-48.1004336,-25.3055807],[-48.0995082,-25.3122238],[-47.856105,-25.4895759],[-47.2171344,-25.0842751],[-46.5804016,-24.6749745],[-46.5724356,-24.6708268],[-46.0793473,-24.5165878],[-45.6170725,-24.2978127],[-45.1700584,-24.1530716],[-45.1449682,-24.1431515],[-45.1139873,-24.1256084],[-44.4750231,-23.6926879],[-44.7237744,-23.3673482],[-44.7280809,-23.3688532],[-44.7357554,-23.3656372],[-44.741461,-23.3588868],[-44.7564282,-23.3502079],[-44.759944,-23.3412275],[-44.7633995,-23.3415891],[-44.7707526,-23.3382542],[-44.7771502,-23.3384988],[-44.7767796,-23.3309815],[-44.7815611,-23.3268429],[-44.7790135,-23.3155155],[-44.7855427,-23.3099458],[-44.7877423,-23.3052147],[-44.7867001,-23.2999715],[-44.8053644,-23.2900491],[-44.8071498,-23.2834855],[-44.8188487,-23.2897377],[-44.8267208,-23.2916214],[-44.827186,-23.2888425],[-44.8237589,-23.2806923],[-44.8288486,-23.2762455],[-44.8284829,-23.2695571],[-44.8399931,-23.2633896],[-44.8362626,-23.257897],[-44.8364313,-23.2558349],[-44.8421302,-23.2557224],[-44.8521219,-23.2488988],[-44.8706477,-23.2495651],[-44.8783109,-23.2428753],[-44.8808676,-23.2365899],[-44.8859508,-23.2357903],[-44.8889315,-23.2245048],[-44.8801147,-23.2133097],[-44.8834824,-23.2110079],[-44.8837207,-23.2048051],[-44.8749001,-23.1967461],[-44.8768324,-23.1944879],[-44.8741256,-23.1897136],[-44.8747484,-23.1846984],[-44.8727325,-23.1825022],[-44.8604567,-23.180978],[-44.8563593,-23.1766839],[-44.8530814,-23.176602],[-44.8527373,-23.1738977],[-44.8479187,-23.1741435],[-44.8448539,-23.1723899],[-44.84528,-23.1689808],[-44.8429035,-23.1666863],[-44.8335123,-23.1668338],[-44.828448,-23.1620153],[-44.8251537,-23.1630478],[-44.8227272,-23.1600769],[-44.821253,-23.1535255],[-44.8254815,-23.143741],[-44.823482,-23.1412006],[-44.8160575,-23.1403156],[-44.8158444,-23.1373327],[-44.8193026,-23.1338253],[-44.8192535,-23.1315963],[-44.8144185,-23.1274662],[-44.8148938,-23.1204023],[-44.8105998,-23.1155346],[-44.8129763,-23.112732],[-44.8152708,-23.1124534],[-44.8164345,-23.1078315],[-44.8088133,-23.0994729],[-44.8128779,-23.0982273],[-44.8111898,-23.0962933],[-44.8125338,-23.0916878],[-44.8188437,-23.0914584],[-44.8179259,-23.0857221],[-44.8140744,-23.0813788],[-44.8114029,-23.0713648],[-44.8147955,-23.0676772],[-44.8069941,-23.0630554],[-44.8118946,-23.0545164],[-44.8065024,-23.0498618],[-44.8046176,-23.0492882],[-44.8034048,-23.0508124],[-44.8022084,-23.0487801],[-44.8012742,-23.0445188],[-44.8030442,-23.0400608],[-44.8005858,-23.0352915],[-44.8019625,-23.0315875],[-44.7984388,-23.0297191],[-44.7958656,-23.0253103],[-44.7986354,-23.0202623],[-44.7928172,-23.0098386],[-44.7954886,-23.0070524],[-44.7996352,-23.0064787],[-44.8026359,-22.999662],[-44.8012564,-22.9965004],[-44.7929014,-22.9934132],[-44.7936473,-22.9863291],[-44.7918982,-22.9818759],[-44.7875625,-22.9825454],[-44.7834684,-22.978955],[-44.7767395,-22.9780555],[-44.7730654,-22.9814553],[-44.7699122,-22.9808834],[-44.7648405,-22.9833138],[-44.7593433,-22.9790954],[-44.7552595,-22.9803125],[-44.7543516,-22.9786003],[-44.7567901,-22.9743199],[-44.7493697,-22.9699733],[-44.7494238,-22.9660556],[-44.7517661,-22.9626382],[-44.7482478,-22.9568707],[-44.7491275,-22.9537254],[-44.7450867,-22.9518897],[-44.7438207,-22.9472056],[-44.7278651,-22.9418204],[-44.7194737,-22.9349205],[-44.7167203,-22.9349301],[-44.7134344,-22.9298754],[-44.706635,-22.9316064],[-44.7035452,-22.936102],[-44.701028,-22.9351967],[-44.7003103,-22.9328909],[-44.6957166,-22.9320538],[-44.6877348,-22.93677],[-44.6872237,-22.9325197],[-44.682564,-22.9303352],[-44.6801482,-22.9257721],[-44.6786072,-22.9262152],[-44.6733324,-22.9179578],[-44.6716578,-22.9192868],[-44.6716121,-22.9220663],[-44.658994,-22.9279312],[-44.6550633,-22.9233564],[-44.6396724,-22.9155878],[-44.6386735,-22.9141538],[-44.6401795,-22.912261],[-44.6353676,-22.9063947],[-44.6297554,-22.9056978],[-44.6227174,-22.9009468],[-44.6073108,-22.885237],[-44.6023345,-22.8901919],[-44.5997787,-22.8907685],[-44.5928091,-22.8844396],[-44.5874413,-22.8826883],[-44.5828922,-22.8837348],[-44.5757295,-22.8780175],[-44.5698635,-22.8840013],[-44.5662049,-22.8826954],[-44.5624033,-22.8836494],[-44.5559534,-22.8880917],[-44.5436516,-22.8849451],[-44.54499,-22.8806736],[-44.538896,-22.8736969],[-44.5306093,-22.868087],[-44.5184214,-22.8653248],[-44.5154029,-22.8618222],[-44.5116725,-22.8604268],[-44.5117864,-22.8575649],[-44.5052785,-22.8515493],[-44.4954126,-22.8469563],[-44.4907331,-22.8480324],[-44.4849432,-22.846201],[-44.4787208,-22.8508682],[-44.4753333,-22.8572393],[-44.4801342,-22.8665045],[-44.4760269,-22.8678008],[-44.4773299,-22.873616],[-44.4707232,-22.876151],[-44.4699156,-22.8805031],[-44.4661916,-22.8853713],[-44.4582583,-22.8833065],[-44.4523051,-22.8772278],[-44.4443299,-22.8765324],[-44.4376446,-22.8731],[-44.4332925,-22.8688376],[-44.4326643,-22.8610755],[-44.4230592,-22.8504965],[-44.4181953,-22.8481123],[-44.4106793,-22.846359],[-44.4031495,-22.848539],[-44.4033942,-22.8529257],[-44.4005357,-22.8550975],[-44.3920592,-22.8524946],[-44.3874379,-22.8564878],[-44.3811959,-22.8583513],[-44.3742233,-22.8580862],[-44.345116,-22.8456039],[-44.3413651,-22.8455031],[-44.3399905,-22.8413955],[-44.3322733,-22.8429659],[-44.325274,-22.8377612],[-44.320518,-22.8399149],[-44.3210664,-22.8470838],[-44.3237806,-22.8492327],[-44.3224344,-22.8496667],[-44.3180567,-22.845095],[-44.3164591,-22.839077],[-44.3081777,-22.8325513],[-44.3013735,-22.8310166],[-44.2965216,-22.8278766],[-44.2911673,-22.8293341],[-44.2856575,-22.8282432],[-44.286471,-22.8320705],[-44.2841783,-22.8330135],[-44.2833648,-22.8361567],[-44.2748042,-22.8318487],[-44.2722526,-22.8321075],[-44.2676787,-22.8292436],[-44.2695162,-22.8274112],[-44.2673437,-22.8252849],[-44.2658737,-22.818943],[-44.2637105,-22.8177967],[-44.2613115,-22.8062592],[-44.2593423,-22.8042993],[-44.2581821,-22.8065412],[-44.2463792,-22.8039661],[-44.2415407,-22.7983278],[-44.2401407,-22.792658],[-44.2424915,-22.7882331],[-44.2478638,-22.7908714],[-44.2507297,-22.7883033],[-44.2565232,-22.7874906],[-44.2566104,-22.7849907],[-44.2537561,-22.7807563],[-44.2571028,-22.77803],[-44.2544581,-22.7739323],[-44.2585747,-22.7707009],[-44.2571054,-22.766283],[-44.2519766,-22.764692],[-44.2504728,-22.7575675],[-44.2461647,-22.7574435],[-44.2426384,-22.754611],[-44.2387775,-22.7557248],[-44.2424999,-22.7486509],[-44.2351117,-22.7451433],[-44.2270465,-22.733739],[-44.218331,-22.7323715],[-44.2093514,-22.7370254],[-44.2043922,-22.7349883],[-44.1989603,-22.7352873],[-44.2003945,-22.7299549],[-44.1991823,-22.7271964],[-44.2026086,-22.7255709],[-44.2037069,-22.7174175],[-44.2010589,-22.7151431],[-44.1852319,-22.7120183],[-44.1760611,-22.7056579],[-44.1738608,-22.702108],[-44.176813,-22.6926214],[-44.1674243,-22.6871396],[-44.168086,-22.6830924],[-44.1613652,-22.6782584],[-44.1655332,-22.6736495],[-44.1714498,-22.6594284],[-44.175191,-22.6557542],[-44.1811063,-22.6543226],[-44.1901268,-22.648584],[-44.1910602,-22.6450583],[-44.1861637,-22.6414175],[-44.1842763,-22.6372991],[-44.1897793,-22.6331841],[-44.1912054,-22.6299349],[-44.1985025,-22.6304905],[-44.2043678,-22.6263438],[-44.2025834,-22.622862],[-44.2039458,-22.615971],[-44.2074259,-22.6120217],[-44.2100339,-22.6156073],[-44.2148989,-22.6142026],[-44.2163879,-22.6171159],[-44.219364,-22.6175366],[-44.2244351,-22.6115345],[-44.2263691,-22.60456],[-44.2326383,-22.6091546],[-44.238095,-22.6075493],[-44.2419331,-22.6092999],[-44.2456062,-22.6064197],[-44.2482354,-22.6064857],[-44.2489753,-22.6095906],[-44.2533882,-22.6124709],[-44.2603379,-22.6095906],[-44.2643148,-22.6041075],[-44.2679217,-22.6021587],[-44.2687356,-22.5987743],[-44.2720439,-22.6020662],[-44.2833338,-22.6043817],[-44.2833603,-22.6080679],[-44.2856906,-22.609731],[-44.2952778,-22.6017062],[-44.2954297,-22.5984626],[-44.304239,-22.5990967],[-44.313263,-22.5957672],[-44.3153902,-22.5976896],[-44.3200937,-22.59547],[-44.3264885,-22.5884476],[-44.3289724,-22.5882627],[-44.3336628,-22.5911033],[-44.3449903,-22.5878487],[-44.3473842,-22.5909061],[-44.3452391,-22.5966393],[-44.3501484,-22.5953142],[-44.35183,-22.6002366],[-44.3485474,-22.6060116],[-44.3491951,-22.6090313],[-44.3526494,-22.6100436],[-44.3560237,-22.6148993],[-44.3611903,-22.6128418],[-44.3598427,-22.6093869],[-44.3627449,-22.6059103],[-44.3598616,-22.5930541],[-44.3622511,-22.5918393],[-44.3657534,-22.5940385],[-44.3704205,-22.5897465],[-44.3646134,-22.5866374],[-44.3642408,-22.5844854],[-44.3605182,-22.5831717],[-44.3598084,-22.5811739],[-44.3638457,-22.5779555],[-44.3712139,-22.5804062],[-44.3823978,-22.5734942],[-44.3895986,-22.5741985],[-44.3923701,-22.572494],[-44.3957023,-22.5815621],[-44.4002478,-22.5821908],[-44.4035226,-22.5880292],[-44.4096505,-22.5884303],[-44.4049285,-22.5914322],[-44.4059457,-22.5989991],[-44.4011244,-22.6032952],[-44.3981514,-22.6029024],[-44.4017942,-22.6066859],[-44.4034848,-22.6060956],[-44.4066197,-22.6088484],[-44.4154394,-22.6021044],[-44.4314745,-22.5986518],[-44.4393019,-22.6047301],[-44.4423251,-22.6043125],[-44.4452766,-22.6063303],[-44.4467258,-22.6105125],[-44.4546092,-22.6094686],[-44.4648767,-22.6159696],[-44.4784696,-22.6128489],[-44.4849038,-22.6039018],[-44.4886662,-22.6067556],[-44.488916,-22.6091756],[-44.485175,-22.6110516],[-44.49299,-22.6180119],[-44.4911442,-22.6206857],[-44.4959382,-22.6228748],[-44.4955209,-22.6256198],[-44.5003702,-22.6286882],[-44.5085884,-22.640947],[-44.5107249,-22.6401358],[-44.5156,-22.6301066],[-44.5214637,-22.6317961],[-44.5266844,-22.6299281],[-44.5322718,-22.6307277],[-44.5345328,-22.6330881],[-44.5312314,-22.6394967],[-44.5350049,-22.638107],[-44.5378125,-22.6330384],[-44.5341849,-22.6264045],[-44.528491,-22.6236635],[-44.5263039,-22.6192916],[-44.5306506,-22.6191193],[-44.5329941,-22.6158361],[-44.5356286,-22.618342],[-44.5375378,-22.6181941],[-44.5413831,-22.6119242],[-44.5457871,-22.6094972],[-44.5460294,-22.6069617],[-44.5494456,-22.6061904],[-44.550279,-22.6037612],[-44.5530569,-22.6056112],[-44.5550854,-22.6102569],[-44.5640868,-22.6119927],[-44.5716079,-22.6057498],[-44.5722138,-22.6014319],[-44.574057,-22.6017336],[-44.5799063,-22.6117856],[-44.5808624,-22.6145415],[-44.5797216,-22.6164336],[-44.583777,-22.6228551],[-44.5836567,-22.6262132],[-44.5918319,-22.623548],[-44.5932677,-22.6216814],[-44.5928908,-22.6169162],[-44.5968842,-22.6137395],[-44.5969551,-22.6099938],[-44.602076,-22.6077715],[-44.6046058,-22.6137009],[-44.6107974,-22.6173843],[-44.612785,-22.6173448],[-44.6172926,-22.6132592],[-44.6229872,-22.6051234],[-44.6330988,-22.6093274],[-44.6402486,-22.6080579],[-44.6461165,-22.6033866],[-44.6434484,-22.6004855],[-44.6471202,-22.5846413],[-44.6465033,-22.5815239],[-44.6423682,-22.5776348],[-44.6428985,-22.5644965],[-44.6416234,-22.5602024],[-44.6444276,-22.5555986],[-44.6480853,-22.5524939],[-44.6503527,-22.5570132],[-44.6556505,-22.5541691],[-44.659398,-22.5542406],[-44.6615327,-22.5509361],[-44.6678736,-22.5540738],[-44.6749225,-22.5613421],[-44.6774261,-22.5615001],[-44.6788444,-22.5589012],[-44.6771244,-22.5475284],[-44.6749227,-22.5429469],[-44.6699265,-22.5392683],[-44.6710072,-22.5366647],[-44.6787531,-22.530615],[-44.6808209,-22.5256914],[-44.686538,-22.5240186],[-44.6888605,-22.5198073],[-44.6974633,-22.5180336],[-44.6969535,-22.5154422],[-44.7001453,-22.5131678],[-44.6988657,-22.5114658],[-44.7013876,-22.5107453],[-44.7145432,-22.5149493],[-44.7162208,-22.5142362],[-44.7152891,-22.5125715],[-44.7171774,-22.5104766],[-44.7127903,-22.509367],[-44.7144119,-22.5059681],[-44.7136896,-22.5030789],[-44.7102411,-22.5011104],[-44.7112537,-22.4962598],[-44.7122661,-22.4928222],[-44.7200743,-22.4927715],[-44.7220169,-22.4850783],[-44.7249689,-22.4837938],[-44.722483,-22.4793357],[-44.7238223,-22.4761657],[-44.7227656,-22.473381],[-44.7210846,-22.4724843],[-44.7213653,-22.4707248],[-44.7179607,-22.4707184],[-44.717696,-22.4673591],[-44.719345,-22.4669894],[-44.7192454,-22.4634211],[-44.7233116,-22.4621492],[-44.7250139,-22.456567],[-44.7242174,-22.4508307],[-44.7288103,-22.4486145],[-44.7315082,-22.4414328],[-44.7302235,-22.4396342],[-44.7338529,-22.4360305],[-44.7339428,-22.4328958],[-44.7414457,-22.4248276],[-44.7491652,-22.4209783],[-44.7553337,-22.4152692],[-44.7615518,-22.4170421],[-44.7700824,-22.4155261],[-44.7763519,-22.4120831],[-44.7784846,-22.4088969],[-44.7835978,-22.4079334],[-44.7937922,-22.4090768],[-44.805387,-22.4038479],[-44.8095335,-22.4066057],[-44.8071861,-22.409046],[-44.8075847,-22.4151959],[-44.816084,-22.418427],[-44.8231699,-22.4191896],[-44.8281709,-22.4222147],[-44.8306896,-22.4288844],[-44.8337044,-22.4314331],[-44.8403484,-22.427931],[-44.8453151,-22.4276435],[-44.8480934,-22.4299191],[-44.8517255,-22.4268564],[-44.8545631,-22.4283205],[-44.8607276,-22.4230981],[-44.8696016,-22.4237213],[-44.8741111,-22.4281683],[-44.8810392,-22.4290447],[-44.8888696,-22.4324531],[-44.888824,-22.4351788],[-44.8975059,-22.4500364],[-44.8974547,-22.4535065],[-44.9039561,-22.4548232],[-44.9096557,-22.4520122],[-44.9125077,-22.4554201],[-44.9178474,-22.4555841],[-44.9242258,-22.4530509],[-44.9274696,-22.4540897],[-44.9313017,-22.4517947],[-44.9395297,-22.4530842],[-44.9409507,-22.456141],[-44.9474384,-22.4586194],[-44.9509101,-22.4626287],[-44.9610335,-22.4664922],[-44.9658591,-22.4751928],[-44.9698995,-22.4721781],[-44.9796676,-22.4691711],[-44.9887522,-22.4693716],[-44.9917956,-22.4659181],[-44.997035,-22.4692349],[-45.0097893,-22.4663687],[-45.0171953,-22.4676585],[-45.0190177,-22.4666927],[-45.0271499,-22.4702269],[-45.0251489,-22.4648714],[-45.0284034,-22.4631977],[-45.0405443,-22.4692716],[-45.0588919,-22.4707748],[-45.0658173,-22.4770646],[-45.0715369,-22.4773695],[-45.0842471,-22.4872304],[-45.084164,-22.4849007],[-45.0877268,-22.4828346],[-45.0966292,-22.4841535],[-45.103,-22.49],[-45.1120331,-22.4932906],[-45.1155685,-22.4929443],[-45.1224754,-22.4969901],[-45.1284537,-22.4971021],[-45.1360577,-22.5020773],[-45.1396117,-22.5016792],[-45.1438214,-22.5067364],[-45.1502955,-22.5074289],[-45.1519721,-22.5117298],[-45.1597417,-22.5162141],[-45.1624861,-22.5263573],[-45.1669922,-22.5312331],[-45.1634732,-22.5362078],[-45.1637736,-22.5381302],[-45.1771863,-22.5467058],[-45.1767697,-22.5490115],[-45.1782038,-22.5500804],[-45.190012,-22.5523565],[-45.1932269,-22.5562984],[-45.203737,-22.5572993],[-45.2123522,-22.5628717],[-45.2230954,-22.5636307],[-45.2261602,-22.5672817],[-45.2409372,-22.57574],[-45.2437104,-22.5757994],[-45.2545407,-22.5816243],[-45.2601729,-22.5820534],[-45.260681,-22.5857064],[-45.2571265,-22.5902992],[-45.260487,-22.5966004],[-45.2606317,-22.6012019],[-45.2641943,-22.6040481],[-45.2614069,-22.6071156],[-45.2661202,-22.6109498],[-45.2711056,-22.6117784],[-45.2758416,-22.6175264],[-45.2836737,-22.6147335],[-45.2881811,-22.6153439],[-45.2938527,-22.6136686],[-45.3042301,-22.6157239],[-45.3149053,-22.6146245],[-45.3163215,-22.6127032],[-45.3238961,-22.6162488],[-45.3273078,-22.6156546],[-45.3331443,-22.6175759],[-45.3353974,-22.6230228],[-45.3489536,-22.6265112],[-45.3609582,-22.6387614],[-45.364984,-22.6393455],[-45.3705979,-22.6373159],[-45.3753521,-22.6407578],[-45.3812515,-22.6423095],[-45.3864322,-22.6486326],[-45.3933045,-22.6497672],[-45.3978765,-22.6534238],[-45.4060816,-22.6533093],[-45.4105211,-22.651671],[-45.4086721,-22.6443632],[-45.4118586,-22.6412243],[-45.4087311,-22.6334015],[-45.4130965,-22.6285037],[-45.4129317,-22.6222155],[-45.4354191,-22.6196362],[-45.4367066,-22.6182101],[-45.4370423,-22.6108504],[-45.4470169,-22.6037598],[-45.4480469,-22.6055229],[-45.4525852,-22.6069789],[-45.4684532,-22.5926959],[-45.4753196,-22.589536],[-45.4783281,-22.5895605],[-45.4822997,-22.5916794],[-45.4790216,-22.5903841],[-45.4748742,-22.5993895],[-45.4769143,-22.6028539],[-45.4763811,-22.6071207],[-45.4838494,-22.6155697],[-45.4875626,-22.6276974],[-45.4893268,-22.6289402],[-45.4991285,-22.6250112],[-45.5074617,-22.6317195],[-45.5083152,-22.6343181],[-45.5142148,-22.6373625],[-45.5164596,-22.6414302],[-45.524931,-22.6468747],[-45.533047,-22.6467543],[-45.5384458,-22.6500174],[-45.5399082,-22.6525798],[-45.5447906,-22.6508388],[-45.5540826,-22.654315],[-45.5591612,-22.6535946],[-45.5659653,-22.6565228],[-45.5711016,-22.6556088],[-45.573577,-22.6569701],[-45.5767689,-22.6540313],[-45.5843695,-22.6516886],[-45.5819883,-22.6446667],[-45.5773265,-22.6405282],[-45.5728336,-22.6412243],[-45.5599393,-22.6276024],[-45.5553554,-22.626441],[-45.5639165,-22.613818],[-45.5754097,-22.6066662],[-45.5765196,-22.6017028],[-45.5793868,-22.6053855],[-45.5879976,-22.6104226],[-45.588469,-22.6116659],[-45.5847791,-22.6155087],[-45.589993,-22.619058],[-45.6010485,-22.6189333],[-45.6050788,-22.6204322],[-45.6181281,-22.6379141],[-45.6246592,-22.6390162],[-45.6315814,-22.6435791],[-45.6477,-22.6482337],[-45.6594141,-22.6484497],[-45.6661848,-22.6512012],[-45.6721622,-22.6469453],[-45.673492,-22.6424719],[-45.6810783,-22.6363357],[-45.6744187,-22.6306992],[-45.6736919,-22.6290448],[-45.675537,-22.6262052],[-45.6704021,-22.6174574],[-45.6657857,-22.6132301],[-45.6681336,-22.6096473],[-45.6649957,-22.6043678],[-45.6644041,-22.6000843],[-45.6589883,-22.5979912],[-45.6630756,-22.5866995],[-45.6598828,-22.5800818],[-45.6605737,-22.5778408],[-45.6742946,-22.5759195],[-45.6797055,-22.5734123],[-45.6946265,-22.5860696],[-45.7013826,-22.5849601],[-45.7050678,-22.5810397],[-45.7174052,-22.5776616],[-45.7185802,-22.578352],[-45.717,-22.582],[-45.720583,-22.5853299],[-45.7264579,-22.586612],[-45.729,-22.591],[-45.7273134,-22.5945533],[-45.734309,-22.5974356],[-45.7368804,-22.6089979],[-45.729535,-22.6130594],[-45.7300422,-22.6187456],[-45.728845,-22.6204796],[-45.720603,-22.6197737],[-45.7174694,-22.6210098],[-45.7087168,-22.6394678],[-45.6996645,-22.6424264],[-45.6972447,-22.644993],[-45.6979552,-22.6497704],[-45.6939927,-22.6517099],[-45.7043032,-22.655091],[-45.7087327,-22.6590608],[-45.7161828,-22.6619924],[-45.726994,-22.6602957],[-45.7322301,-22.6568357],[-45.7428067,-22.6591669],[-45.7478584,-22.664524],[-45.7472862,-22.6667924],[-45.7505519,-22.6712425],[-45.7554836,-22.671074],[-45.7610778,-22.6772422],[-45.7695242,-22.678887],[-45.7788831,-22.6835668],[-45.7867948,-22.6932169],[-45.7914233,-22.6926456],[-45.811641,-22.6987077],[-45.8179915,-22.7113676],[-45.817693,-22.7161445],[-45.8198219,-22.7232996],[-45.8151885,-22.7301946],[-45.8014557,-22.7386177],[-45.7956339,-22.7390214],[-45.782014,-22.7317897],[-45.7759654,-22.7320942],[-45.7702442,-22.7271905],[-45.7636127,-22.7254899],[-45.7564638,-22.72104],[-45.7466916,-22.7231647],[-45.7325571,-22.7220027],[-45.7281403,-22.7236836],[-45.7304415,-22.7264803],[-45.727196,-22.7292485],[-45.7266699,-22.7326862],[-45.7241677,-22.7338503],[-45.723545,-22.7383972],[-45.71732,-22.7481412],[-45.7177547,-22.7551815],[-45.7134122,-22.7569472],[-45.71408,-22.7618481],[-45.7119176,-22.7732277],[-45.7151041,-22.7747015],[-45.7168032,-22.7799792],[-45.7224947,-22.7794601],[-45.7251047,-22.784262],[-45.729029,-22.7852375],[-45.7303336,-22.7985943],[-45.7286897,-22.8009408],[-45.7256327,-22.8000224],[-45.722249,-22.8029856],[-45.7203074,-22.8082659],[-45.7143286,-22.8086291],[-45.7130447,-22.8106157],[-45.7135809,-22.8147857],[-45.7171617,-22.8170231],[-45.7227755,-22.8163174],[-45.7287746,-22.8101865],[-45.7417069,-22.8079167],[-45.7429038,-22.7953571],[-45.7486445,-22.7922964],[-45.7549173,-22.7929123],[-45.7590213,-22.8010296],[-45.7668236,-22.8024587],[-45.7709451,-22.8059268],[-45.7669594,-22.8408123],[-45.7679157,-22.8443855],[-45.7794691,-22.8506912],[-45.7818841,-22.8552572],[-45.7891664,-22.8581243],[-45.7918837,-22.8583279],[-45.7923785,-22.8552279],[-45.8005945,-22.8476294],[-45.8023769,-22.8346156],[-45.809802,-22.8293866],[-45.8151872,-22.8344032],[-45.8165052,-22.8321537],[-45.823366,-22.829887],[-45.8256047,-22.833643],[-45.8294911,-22.834889],[-45.833269,-22.8346957],[-45.8372455,-22.8320719],[-45.8417401,-22.8331835],[-45.8481273,-22.8378307],[-45.8504731,-22.8434578],[-45.8500817,-22.846924],[-45.8572787,-22.8511791],[-45.8585536,-22.8553226],[-45.8575838,-22.8607061],[-45.8604069,-22.8621235],[-45.8638522,-22.8687103],[-45.8703851,-22.869413],[-45.8706356,-22.8710953],[-45.8760454,-22.8726912],[-45.8790219,-22.8754666],[-45.888915,-22.875817],[-45.8874387,-22.8719269],[-45.8895229,-22.859684],[-45.8900798,-22.8579753],[-45.894098,-22.857115],[-45.8923294,-22.8533124],[-45.8938864,-22.8484781],[-45.891031,-22.8446735],[-45.8938095,-22.8424905],[-45.8940006,-22.8392039],[-45.8969757,-22.8394968],[-45.9039438,-22.8362285],[-45.9081904,-22.8309754],[-45.9087896,-22.8294328],[-45.9043036,-22.819254],[-45.9126652,-22.8165952],[-45.9225804,-22.8240412],[-45.92521,-22.8328916],[-45.9369467,-22.8452517],[-45.9504092,-22.845891],[-45.9514649,-22.8481653],[-45.956304,-22.850286],[-45.9601931,-22.8576284],[-45.9648327,-22.8555733],[-45.9685832,-22.8601537],[-45.9764974,-22.865435],[-45.9829584,-22.8682497],[-45.9923539,-22.8695956],[-45.9906693,-22.8751714],[-45.9920841,-22.8774914],[-45.9941662,-22.8790735],[-46.0016816,-22.8797941],[-46.0084429,-22.8892231],[-46.0128651,-22.8865594],[-46.0171024,-22.8875644],[-46.0273305,-22.8846692],[-46.0512735,-22.8963265],[-46.0595556,-22.8947076],[-46.0639447,-22.8916433],[-46.0738917,-22.8932922],[-46.0753933,-22.8909635],[-46.0836619,-22.8915698],[-46.0895217,-22.8952232],[-46.0952183,-22.894429],[-46.1016367,-22.9015165],[-46.1053362,-22.9015492],[-46.1086682,-22.9054622],[-46.1148311,-22.9060718],[-46.1236125,-22.9095444],[-46.1390937,-22.9227553],[-46.1498819,-22.9165435],[-46.1539895,-22.9124004],[-46.1473937,-22.9076156],[-46.13828,-22.8949706],[-46.1368863,-22.8905415],[-46.1379152,-22.8849656],[-46.1421098,-22.8809561],[-46.141252,-22.868146],[-46.1450233,-22.8571944],[-46.1553279,-22.8641682],[-46.1647528,-22.8641422],[-46.1820612,-22.8670106],[-46.1854995,-22.8691897],[-46.1916453,-22.8651552],[-46.1992784,-22.8708722],[-46.2022519,-22.870293],[-46.2143807,-22.876501],[-46.2280327,-22.8814679],[-46.233592,-22.8817475],[-46.2376186,-22.8940803],[-46.2412187,-22.8901957],[-46.2579781,-22.8904993],[-46.2620821,-22.8783811],[-46.2663112,-22.8756118],[-46.2784731,-22.8782722],[-46.2805038,-22.8841585],[-46.287364,-22.8877373],[-46.2903372,-22.8939803],[-46.2955083,-22.8980787],[-46.302316,-22.8947417],[-46.3043949,-22.8913852],[-46.3113705,-22.8905153],[-46.3134481,-22.886919],[-46.3354308,-22.8959999],[-46.344893,-22.905224],[-46.3507799,-22.8994188],[-46.3563107,-22.9003033],[-46.3597647,-22.8955065],[-46.3637785,-22.8936736],[-46.3677485,-22.8861811],[-46.3724091,-22.8831304],[-46.3734745,-22.8788269],[-46.3778358,-22.8792401],[-46.3755013,-22.8710073],[-46.3801683,-22.871758],[-46.3841924,-22.8699661],[-46.380841,-22.8640461],[-46.3760513,-22.8635732],[-46.3725787,-22.8600974],[-46.3723642,-22.8570521],[-46.374724,-22.8521551],[-46.3743391,-22.8439021],[-46.3710243,-22.8385412],[-46.370698,-22.8350715],[-46.3768111,-22.8278195],[-46.366732,-22.8013992],[-46.3618912,-22.7938031],[-46.3615878,-22.7898016],[-46.3561678,-22.7850325],[-46.3517845,-22.7850491],[-46.347502,-22.7775845],[-46.3429361,-22.7773832],[-46.3402766,-22.7736732],[-46.3410934,-22.7692649],[-46.3340021,-22.7678365],[-46.3320135,-22.7660403],[-46.3345415,-22.7603001],[-46.346361,-22.7599569],[-46.3548916,-22.7570927],[-46.36048,-22.7613454],[-46.3635472,-22.7556473],[-46.3675854,-22.7533452],[-46.3671929,-22.7518539],[-46.3728114,-22.7468258],[-46.3791368,-22.7460847],[-46.3858053,-22.7403043],[-46.3937809,-22.7439725],[-46.4046898,-22.7394058],[-46.4066421,-22.7409204],[-46.4130858,-22.7383005],[-46.4145357,-22.7346229],[-46.4198838,-22.7328906],[-46.4226195,-22.7330051],[-46.4255821,-22.7363253],[-46.4315299,-22.7344127],[-46.4367461,-22.7319421],[-46.4394538,-22.7267257],[-46.443936,-22.728094],[-46.4453653,-22.726375],[-46.4527231,-22.7275819],[-46.4556503,-22.7235843],[-46.4550654,-22.717171],[-46.4573342,-22.7070572],[-46.4630345,-22.7067542],[-46.4628361,-22.7054542],[-46.4686395,-22.7013099],[-46.4716724,-22.7063406],[-46.4788904,-22.6982768],[-46.4699762,-22.6939757],[-46.4785658,-22.6858861],[-46.4806366,-22.6783159],[-46.4704224,-22.6732428],[-46.4613073,-22.676012],[-46.4587795,-22.671819],[-46.451583,-22.6705129],[-46.4485016,-22.6682604],[-46.4401688,-22.6681473],[-46.4364555,-22.6643527],[-46.4277141,-22.6613578],[-46.4200012,-22.6649856],[-46.4123367,-22.6597852],[-46.4050052,-22.6634347],[-46.4055054,-22.666349],[-46.4083804,-22.6693274],[-46.4079001,-22.6719317],[-46.405863,-22.67256],[-46.3930589,-22.6629741],[-46.3942961,-22.6589339],[-46.3923634,-22.6531468],[-46.3963122,-22.6459821],[-46.4060486,-22.6405775],[-46.4146955,-22.6401943],[-46.4206295,-22.6380795],[-46.4246199,-22.6335991],[-46.4230055,-22.6248448],[-46.4050319,-22.6212944],[-46.412846,-22.6086454],[-46.4215536,-22.5984314],[-46.4226786,-22.6001945],[-46.4242906,-22.5997058],[-46.4217787,-22.5966088],[-46.4216967,-22.5936951],[-46.415044,-22.5903929],[-46.4125026,-22.5874305],[-46.4126203,-22.5853281],[-46.4195105,-22.5828834],[-46.4287227,-22.5839261],[-46.4289047,-22.5797111],[-46.4312604,-22.575964],[-46.4349699,-22.5746572],[-46.4265729,-22.5643646],[-46.4234702,-22.5640868],[-46.4121294,-22.5552976],[-46.4064914,-22.5437937],[-46.4067435,-22.5394039],[-46.4122003,-22.5365182],[-46.4140552,-22.5406897],[-46.417644,-22.5422107],[-46.4186311,-22.548104],[-46.427178,-22.5476194],[-46.4284106,-22.5441635],[-46.4383078,-22.5422974],[-46.4399824,-22.5400156],[-46.4398349,-22.5367532],[-46.4460103,-22.5320277],[-46.4484568,-22.5323314],[-46.4522982,-22.5248117],[-46.4518207,-22.5224827],[-46.4654913,-22.5235262],[-46.4674795,-22.518786],[-46.4715886,-22.5176611],[-46.4777952,-22.5210506],[-46.4824247,-22.5160655],[-46.485064,-22.5159466],[-46.4865427,-22.5185738],[-46.4902032,-22.5161349],[-46.4906781,-22.5108722],[-46.4984536,-22.5127155],[-46.5033674,-22.5169476],[-46.5086031,-22.5140634],[-46.5066889,-22.5066443],[-46.5417318,-22.4939703],[-46.5362682,-22.4869901],[-46.5316415,-22.4704858],[-46.5370238,-22.4710523],[-46.5410578,-22.4682168],[-46.5499978,-22.4694461],[-46.5520871,-22.4604784],[-46.548456,-22.4563386],[-46.5535462,-22.4492517],[-46.5555525,-22.449279],[-46.5559065,-22.4456051],[-46.5629675,-22.4464517],[-46.5723755,-22.453823],[-46.5753579,-22.450682],[-46.576635,-22.4428589],[-46.5789682,-22.441097],[-46.5822954,-22.4413374],[-46.5897313,-22.4381562],[-46.5935004,-22.4420997],[-46.5984356,-22.4409916],[-46.6011205,-22.4426104],[-46.6041541,-22.4416188],[-46.6054094,-22.443136],[-46.6114667,-22.4363189],[-46.6135097,-22.437677],[-46.621685,-22.4375977],[-46.6282833,-22.4355648],[-46.633122,-22.4359019],[-46.6412491,-22.4249038],[-46.6471768,-22.429446],[-46.6520959,-22.4230691],[-46.6542095,-22.4235848],[-46.666148,-22.4150504],[-46.6689295,-22.4078397],[-46.6653621,-22.4028951],[-46.662814,-22.394042],[-46.6644019,-22.3865475],[-46.6633022,-22.3835168],[-46.6667837,-22.3827579],[-46.6671914,-22.37936],[-46.6624814,-22.3740771],[-46.6596383,-22.367281],[-46.6625351,-22.3653214],[-46.675669,-22.3693615],[-46.6752128,-22.3666616],[-46.6791642,-22.364242],[-46.6814718,-22.3580183],[-46.6870647,-22.3582208],[-46.6868895,-22.3495882],[-46.690092,-22.3468498],[-46.6941111,-22.348584],[-46.6923414,-22.343975],[-46.6973869,-22.3435319],[-46.6953659,-22.340093],[-46.6976287,-22.339574],[-46.6976424,-22.3380676],[-46.6946783,-22.3360724],[-46.6963265,-22.333655],[-46.6988448,-22.3332571],[-46.6973804,-22.3270857],[-46.6979907,-22.3257709],[-46.7014253,-22.3257172],[-46.7004575,-22.3216218],[-46.7045414,-22.3214964],[-46.7091588,-22.3186401],[-46.7107814,-22.3195234],[-46.7097979,-22.3128333],[-46.717832,-22.3174205],[-46.7178979,-22.3151682],[-46.7219079,-22.3115344],[-46.7213195,-22.3088189],[-46.7232066,-22.3074759],[-46.7206639,-22.305917],[-46.7175767,-22.3075375],[-46.7151761,-22.3047507],[-46.7121774,-22.3044182],[-46.7116892,-22.3018572],[-46.7037325,-22.2941133],[-46.7082131,-22.2920646],[-46.7106915,-22.2839689],[-46.7022747,-22.2804793],[-46.7023337,-22.2789604],[-46.7064214,-22.2710178],[-46.7116463,-22.2704072],[-46.7124617,-22.2656762],[-46.7063892,-22.2570775],[-46.6997641,-22.2518794],[-46.6956764,-22.2463061],[-46.6930506,-22.2459387],[-46.6920126,-22.2485305],[-46.6887939,-22.2479578],[-46.6940192,-22.2380974],[-46.6892928,-22.2307868],[-46.6786981,-22.2240979],[-46.6806267,-22.2142858],[-46.679666,-22.2083533],[-46.6708008,-22.1842606],[-46.6707026,-22.1802421],[-46.6738355,-22.1756175],[-46.6690093,-22.1747375],[-46.663134,-22.1804011],[-46.6507987,-22.1775343],[-46.6462923,-22.1813219],[-46.6464271,-22.1779461],[-46.6403396,-22.1659045],[-46.6404581,-22.1577196],[-46.6349678,-22.154483],[-46.6278881,-22.1564292],[-46.6130415,-22.1502525],[-46.6071718,-22.1416855],[-46.6010467,-22.1391206],[-46.59853,-22.1363895],[-46.6003687,-22.1335154],[-46.6035938,-22.1321974],[-46.6110844,-22.1324268],[-46.6161159,-22.1306547],[-46.6165352,-22.1236936],[-46.6206765,-22.1199938],[-46.6197351,-22.115546],[-46.6231824,-22.1088832],[-46.6278809,-22.1086776],[-46.6301179,-22.1069183],[-46.6320169,-22.108121],[-46.6347796,-22.1073954],[-46.6353697,-22.1031211],[-46.638996,-22.1021966],[-46.6415495,-22.0980216],[-46.645546,-22.0956159],[-46.6464499,-22.092231],[-46.652283,-22.0921185],[-46.6536639,-22.0942382],[-46.6541845,-22.092668],[-46.6624254,-22.095439],[-46.6632007,-22.0943511],[-46.6652388,-22.0971221],[-46.6695808,-22.0966192],[-46.6724053,-22.09821],[-46.6755731,-22.0969169],[-46.6762488,-22.0945256],[-46.6775558,-22.0948951],[-46.6810117,-22.0907898],[-46.6850435,-22.0935301],[-46.6868157,-22.0927809],[-46.6880784,-22.0948437],[-46.6898728,-22.0944845],[-46.6916823,-22.090863],[-46.6942242,-22.0904864],[-46.7015666,-22.0967989],[-46.7045542,-22.0946543],[-46.7062284,-22.0954912],[-46.7078768,-22.0930463],[-46.708651,-22.0945616],[-46.7113058,-22.0919643],[-46.7141122,-22.0928968],[-46.7147122,-22.0907956],[-46.7165219,-22.0920808],[-46.7167469,-22.0893383],[-46.7198501,-22.0891231],[-46.7193125,-22.0835824],[-46.7226694,-22.0810495],[-46.7213587,-22.0788888],[-46.7241716,-22.077998],[-46.7230232,-22.0749094],[-46.7192331,-22.0745843],[-46.70964,-22.0756731],[-46.7076659,-22.079307],[-46.7048872,-22.0775572],[-46.7033422,-22.0782133],[-46.700601,-22.0748131],[-46.6950666,-22.0727159],[-46.692093,-22.0747982],[-46.6870773,-22.0730384],[-46.6836012,-22.0745645],[-46.6784299,-22.0712437],[-46.6699863,-22.0727749],[-46.6639245,-22.0691956],[-46.661586,-22.0694616],[-46.6630018,-22.0668789],[-46.6575279,-22.0607259],[-46.6608667,-22.0613008],[-46.6757369,-22.0562793],[-46.6849208,-22.0425962],[-46.6842663,-22.0302942],[-46.6766408,-22.022544],[-46.6684091,-22.0219298],[-46.6651422,-22.0240284],[-46.6618605,-22.0238305],[-46.6542363,-22.016713],[-46.6536677,-22.0102228],[-46.6508514,-22.0115855],[-46.6457284,-22.0071989],[-46.6363245,-22.0110882],[-46.6349175,-22.0131575],[-46.6153174,-22.0188713],[-46.6130751,-22.0140373],[-46.614207,-21.9991216],[-46.618,-21.994],[-46.6220322,-21.994423],[-46.631,-21.981],[-46.637,-21.98],[-46.644,-21.974],[-46.653,-21.953],[-46.653,-21.941],[-46.667,-21.932],[-46.665,-21.92],[-46.673,-21.908],[-46.663,-21.898],[-46.653,-21.896],[-46.647,-21.88],[-46.653,-21.88],[-46.657,-21.874],[-46.6660058,-21.8483889],[-46.6765302,-21.8506255],[-46.69,-21.837],[-46.685,-21.828],[-46.67,-21.816],[-46.667,-21.806],[-46.651,-21.789],[-46.654,-21.779],[-46.646,-21.776],[-46.639,-21.768],[-46.63,-21.768],[-46.626,-21.766],[-46.63,-21.74],[-46.625,-21.734],[-46.628,-21.729],[-46.622,-21.715],[-46.629,-21.704],[-46.6291758,-21.6960624],[-46.623,-21.692],[-46.6213254,-21.6755441],[-46.5982962,-21.676931],[-46.5894127,-21.6794435],[-46.5875244,-21.6826338],[-46.5761343,-21.6846619],[-46.5734593,-21.6817203],[-46.565,-21.679],[-46.5628627,-21.6772069],[-46.5656748,-21.6747442],[-46.5645014,-21.6725821],[-46.5664638,-21.6694048],[-46.5645419,-21.6643661],[-46.566,-21.659],[-46.5572707,-21.6525876],[-46.5554727,-21.6535653],[-46.5480429,-21.649],[-46.5530429,-21.638],[-46.5470429,-21.63],[-46.5340429,-21.628],[-46.5340429,-21.621],[-46.5180429,-21.612],[-46.5160429,-21.606],[-46.5243235,-21.6011146],[-46.518,-21.593],[-46.522,-21.584],[-46.512,-21.572],[-46.512,-21.566],[-46.502,-21.561],[-46.5,-21.554],[-46.511,-21.535],[-46.52,-21.535],[-46.524,-21.521],[-46.516,-21.511],[-46.519,-21.5],[-46.508,-21.489],[-46.512,-21.477],[-46.509,-21.469],[-46.519,-21.462],[-46.52,-21.447],[-46.528,-21.445],[-46.535,-21.449],[-46.5458999,-21.4403209],[-46.561,-21.441],[-46.57,-21.436],[-46.576,-21.426],[-46.601,-21.443],[-46.615,-21.441],[-46.62,-21.435],[-46.616,-21.43],[-46.62,-21.426],[-46.618,-21.421],[-46.626,-21.411],[-46.637,-21.41],[-46.638,-21.402],[-46.647,-21.393],[-46.6483084,-21.3758271],[-46.6449226,-21.3723968],[-46.6471993,-21.3641931],[-46.650403,-21.3629194],[-46.6557624,-21.3643742],[-46.661394,-21.3637481],[-46.6655312,-21.3611582],[-46.6722467,-21.3688263],[-46.6739209,-21.3744918],[-46.6840165,-21.376372],[-46.6922065,-21.382747],[-46.693892,-21.3905587],[-46.7006345,-21.4007889],[-46.7059624,-21.4048439],[-46.7074764,-21.4046085],[-46.7147217,-21.3926621],[-46.7179809,-21.3907019],[-46.7224796,-21.3897503],[-46.7243217,-21.391837],[-46.7314811,-21.3921923],[-46.7343698,-21.3941698],[-46.7389748,-21.3925723],[-46.7407847,-21.3877498],[-46.7449549,-21.3853971],[-46.7505351,-21.3849177],[-46.7586845,-21.3787884],[-46.7621369,-21.3749687],[-46.7596065,-21.3722053],[-46.7588384,-21.3629046],[-46.7636475,-21.3618769],[-46.7647051,-21.3600636],[-46.776,-21.362],[-46.781,-21.37],[-46.786,-21.368],[-46.791,-21.373],[-46.819,-21.366],[-46.83,-21.366],[-46.836,-21.37],[-46.8353794,-21.376292],[-46.8366465,-21.3772496],[-46.8344274,-21.3821389],[-46.8386472,-21.3852877],[-46.8410338,-21.3851818],[-46.8400312,-21.3869059],[-46.8413044,-21.3889464],[-46.8468712,-21.3900487],[-46.8506469,-21.3891142],[-46.8510912,-21.3904268],[-46.8511545,-21.3893354],[-46.855792,-21.3892922],[-46.8580465,-21.3931877],[-46.8607378,-21.3922],[-46.8636987,-21.3958719],[-46.8653086,-21.3951164],[-46.8645655,-21.3994647],[-46.8675537,-21.4033675],[-46.8753814,-21.4040584],[-46.8757289,-21.405863],[-46.8826433,-21.4048671],[-46.8850623,-21.4090486],[-46.8906245,-21.4113234],[-46.8903823,-21.4132513],[-46.8926041,-21.4137643],[-46.8929631,-21.4158355],[-46.8983859,-21.4159466],[-46.8978608,-21.4137086],[-46.9001565,-21.4129947],[-46.9017701,-21.4170916],[-46.9028758,-21.4167551],[-46.9023916,-21.4189728],[-46.9074889,-21.418245],[-46.9079683,-21.4219528],[-46.9104452,-21.4202385],[-46.9155692,-21.4203252],[-46.920447,-21.4275564],[-46.9250983,-21.4227506],[-46.9276044,-21.4236916],[-46.931402,-21.4223127],[-46.9339432,-21.4261159],[-46.9387411,-21.424162],[-46.939951,-21.4215687],[-46.9409917,-21.4229519],[-46.9469891,-21.4197709],[-46.9488881,-21.419681],[-46.9497343,-21.4218558],[-46.9522529,-21.4211741],[-46.953248,-21.4244326],[-46.9574886,-21.4246873],[-46.9579714,-21.4222903],[-46.964809,-21.4178682],[-46.965042,-21.4210127],[-46.9692615,-21.4230268],[-46.9720027,-21.422113],[-46.9714985,-21.4179531],[-46.9744301,-21.418033],[-46.9754879,-21.4239809],[-46.9789912,-21.4242553],[-46.9802894,-21.4267696],[-46.9823332,-21.4255212],[-46.9834839,-21.427646],[-46.9849457,-21.4269194],[-46.9864823,-21.4214138],[-46.9904344,-21.4242125],[-46.9892183,-21.4258585],[-46.9919763,-21.4271962],[-46.9929735,-21.4261754],[-46.9919082,-21.4235925],[-46.9944344,-21.4241166],[-46.9962927,-21.4219756],[-46.9975255,-21.4230821],[-46.9984859,-21.4209137],[-47.003527,-21.4225157],[-47.0051645,-21.4207087],[-47.0085922,-21.4220122],[-47.0099722,-21.4210239],[-47.0105315,-21.4232437],[-47.0130371,-21.4208324],[-47.0119428,-21.4166988],[-47.0091717,-21.4163746],[-47.006851,-21.4130304],[-47.0077892,-21.4108852],[-47.010167,-21.4103346],[-47.0083146,-21.407295],[-47.0098277,-21.4075228],[-47.0098142,-21.4053328],[-47.0133523,-21.403829],[-47.012902,-21.4020261],[-47.0157376,-21.3998095],[-47.016224,-21.3968255],[-47.0128149,-21.3932028],[-47.0066033,-21.3939156],[-47.0077172,-21.3909832],[-47.0065553,-21.3912656],[-47.0052238,-21.38485],[-47.0042841,-21.3852274],[-47.0056681,-21.3819915],[-47.0038923,-21.3811207],[-47.0070972,-21.3780427],[-47.0063602,-21.3743412],[-47.0078027,-21.3743971],[-47.0090006,-21.3709877],[-47.0073374,-21.3706662],[-47.0057927,-21.3649417],[-47.0009096,-21.364423],[-47.0006079,-21.3627524],[-46.9987225,-21.3624393],[-46.9997087,-21.3605031],[-47.0000195,-21.3611028],[-47.0016932,-21.3605017],[-46.9973024,-21.3593134],[-46.9954631,-21.3518452],[-46.9990295,-21.3485602],[-47.0042651,-21.3500179],[-47.0073944,-21.3456691],[-47.0088103,-21.3463621],[-47.0165953,-21.3422462],[-47.0201557,-21.3324541],[-47.0240918,-21.3286458],[-47.0213358,-21.3261458],[-47.0204978,-21.3225893],[-47.0243611,-21.3206626],[-47.0267077,-21.3153031],[-47.0294962,-21.3151719],[-47.0302169,-21.3122012],[-47.0348398,-21.3118253],[-47.0322244,-21.306481],[-47.0285567,-21.3031496],[-47.0297674,-21.302036],[-47.0286691,-21.3001941],[-47.0374328,-21.2959106],[-47.0371872,-21.2938341],[-47.0423531,-21.2902323],[-47.0399294,-21.2902222],[-47.0418077,-21.2886471],[-47.0404857,-21.2854835],[-47.0415801,-21.2841641],[-47.0388205,-21.2816163],[-47.0424639,-21.2775886],[-47.0411491,-21.2711462],[-47.0443405,-21.2677749],[-47.0431048,-21.2638268],[-47.0441667,-21.2623995],[-47.0510353,-21.2579079],[-47.0493808,-21.2535945],[-47.0520282,-21.2519525],[-47.0522197,-21.246533],[-47.0630019,-21.2393188],[-47.0690772,-21.2415955],[-47.0773276,-21.2403012],[-47.076184,-21.2356821],[-47.0791247,-21.2333471],[-47.0788797,-21.2305298],[-47.072263,-21.2259104],[-47.0679608,-21.2142597],[-47.0624878,-21.2116452],[-47.0621066,-21.2091575],[-47.065,-21.207],[-47.0687505,-21.2090305],[-47.086531,-21.2074059],[-47.0901174,-21.2100085],[-47.0956721,-21.2097039],[-47.0992663,-21.2141461],[-47.099118,-21.2066015],[-47.1149364,-21.1870461],[-47.1188705,-21.1860148],[-47.1186669,-21.1757898],[-47.1200756,-21.1713235],[-47.1244712,-21.1666701],[-47.1219043,-21.1649715],[-47.1224355,-21.1604079],[-47.1163227,-21.1549415],[-47.1186238,-21.151875],[-47.1182084,-21.149335],[-47.1251154,-21.1439101],[-47.126473,-21.1445723],[-47.1337766,-21.1326533],[-47.1263141,-21.1255847],[-47.1262238,-21.1222308],[-47.1273363,-21.1220725],[-47.1218995,-21.1149328],[-47.1225803,-21.1129519],[-47.1180953,-21.1097163],[-47.1188842,-21.1089588],[-47.1118372,-21.108387],[-47.1131577,-21.1056673],[-47.1152043,-21.1054342],[-47.1143359,-21.1042238],[-47.1180189,-21.1034375],[-47.1195923,-21.1005304],[-47.1235,-21.1018505],[-47.1286602,-21.0982853],[-47.1289123,-21.0941523],[-47.1327384,-21.0898725],[-47.1370803,-21.0901489],[-47.1368385,-21.0877881],[-47.1419891,-21.0882345],[-47.139,-21.069],[-47.1457264,-21.0593354],[-47.1480407,-21.0356409],[-47.1525183,-21.0242018],[-47.1568072,-21.0197277],[-47.1507425,-21.0042309],[-47.1506866,-20.9974407],[-47.143,-20.982],[-47.149,-20.969],[-47.164,-20.966],[-47.168,-20.956],[-47.180754,-20.9539203],[-47.1875078,-20.9483595],[-47.1925472,-20.9407725],[-47.1899839,-20.9281904],[-47.210118,-20.9237344],[-47.2242669,-20.9116552],[-47.24,-20.885],[-47.2144844,-20.8272194],[-47.2145175,-20.8212261],[-47.2187016,-20.8168515],[-47.2228395,-20.8088954],[-47.2247543,-20.8000989],[-47.2217578,-20.7965399],[-47.2138655,-20.7923115],[-47.2114505,-20.7806531],[-47.2070694,-20.7755311],[-47.2048158,-20.7743437],[-47.1952994,-20.774969],[-47.1917118,-20.7709185],[-47.1888183,-20.7706247],[-47.1822923,-20.741293],[-47.1751925,-20.7392619],[-47.1766351,-20.7359093],[-47.182542,-20.7352105],[-47.1862607,-20.7311344],[-47.1695094,-20.7176966],[-47.1731248,-20.7119186],[-47.1692408,-20.7034308],[-47.1655985,-20.7014877],[-47.1632614,-20.703398],[-47.1550156,-20.7041513],[-47.1490655,-20.7076166],[-47.1445373,-20.7057008],[-47.1380011,-20.7074615],[-47.1341217,-20.7064328],[-47.1266754,-20.7093185],[-47.1153009,-20.7072048],[-47.1127313,-20.7035713],[-47.1127937,-20.6966476],[-47.1012353,-20.6831658],[-47.1003175,-20.679112],[-47.1028236,-20.6708618],[-47.0967873,-20.6617832],[-47.0958157,-20.6577722],[-47.095922,-20.6522339],[-47.0981807,-20.6471584],[-47.0968958,-20.6445283],[-47.1078156,-20.6382327],[-47.1126809,-20.6380843],[-47.1117086,-20.628174],[-47.1087345,-20.6208048],[-47.1159019,-20.6152766],[-47.1233226,-20.6127225],[-47.1252904,-20.6087946],[-47.1257299,-20.6030068],[-47.1227618,-20.5946813],[-47.1252901,-20.5904314],[-47.1323961,-20.5907839],[-47.13555,-20.5788424],[-47.1426277,-20.5660141],[-47.1385152,-20.5638453],[-47.138234,-20.5545926],[-47.1415205,-20.5410165],[-47.1452362,-20.5402138],[-47.1434686,-20.5353084],[-47.1447331,-20.5324923],[-47.1505478,-20.5287924],[-47.1493269,-20.527386],[-47.1519053,-20.5209228],[-47.1552976,-20.5193019],[-47.1646541,-20.5187073],[-47.1768671,-20.5140042],[-47.1775082,-20.5149515],[-47.1795989,-20.5126808],[-47.1805899,-20.5144486],[-47.1826075,-20.5126243],[-47.1850926,-20.5136426],[-47.18605,-20.5100609],[-47.1902758,-20.5106426],[-47.1903984,-20.5074466],[-47.2024643,-20.5015307],[-47.204183,-20.5038478],[-47.2113366,-20.5023256],[-47.2125467,-20.4982179],[-47.2141564,-20.4990047],[-47.2194996,-20.4967941],[-47.2189462,-20.4951348],[-47.2236216,-20.491163],[-47.2267155,-20.491304],[-47.2268562,-20.4887369],[-47.2299566,-20.4867785],[-47.2418629,-20.4836614],[-47.2464908,-20.4811709],[-47.2501812,-20.4768233],[-47.2540019,-20.4779138],[-47.2534696,-20.4755696],[-47.2559654,-20.4743696],[-47.2550762,-20.472725],[-47.258183,-20.4692984],[-47.2641529,-20.4682078],[-47.2652325,-20.4657468],[-47.2690632,-20.4667955],[-47.2716303,-20.4629176],[-47.278441,-20.4608947],[-47.2772968,-20.4585594],[-47.2837045,-20.457259],[-47.2828488,-20.4554411],[-47.2920956,-20.4473958],[-47.2892552,-20.4439871],[-47.2872993,-20.4443859],[-47.285361,-20.4424477],[-47.2877953,-20.4392041],[-47.28674,-20.4356012],[-47.2873121,-20.4340449],[-47.2894644,-20.4348365],[-47.2896037,-20.4332165],[-47.2936448,-20.4321886],[-47.2929174,-20.4276973],[-47.2964931,-20.4262453],[-47.2930007,-20.4222637],[-47.2916276,-20.423364],[-47.2885952,-20.4207549],[-47.293995,-20.4179258],[-47.2901201,-20.4179779],[-47.2874906,-20.415518],[-47.2892556,-20.4089368],[-47.2868424,-20.4092237],[-47.2853183,-20.4050685],[-47.289756,-20.3997155],[-47.2917957,-20.3995057],[-47.2882933,-20.3940406],[-47.2897958,-20.3908883],[-47.2871043,-20.388521],[-47.2899345,-20.3867403],[-47.2925911,-20.38813],[-47.2938996,-20.3855511],[-47.2909494,-20.383392],[-47.2948,-20.3808084],[-47.2928449,-20.3791249],[-47.2947055,-20.3776745],[-47.2934767,-20.376308],[-47.2948249,-20.3739948],[-47.2923424,-20.3702545],[-47.2955015,-20.3687667],[-47.2934369,-20.3672743],[-47.2929294,-20.3634498],[-47.2963423,-20.3575403],[-47.2949343,-20.355516],[-47.2970288,-20.3517286],[-47.2949891,-20.350875],[-47.2981133,-20.3483282],[-47.2934419,-20.3429359],[-47.2940339,-20.3417185],[-47.2917454,-20.3405476],[-47.2939045,-20.3398712],[-47.290437,-20.3382339],[-47.2909652,-20.3352972],[-47.2889845,-20.3350059],[-47.2886213,-20.3331136],[-47.285374,-20.334042],[-47.285663,-20.332372],[-47.2845465,-20.3325203],[-47.2855024,-20.329581],[-47.283295,-20.327604],[-47.2859829,-20.3252293],[-47.2842223,-20.325737],[-47.283585,-20.322414],[-47.2857311,-20.3205849],[-47.284478,-20.3159475],[-47.2863306,-20.3163969],[-47.2842514,-20.3135761],[-47.2835932,-20.3155613],[-47.282409,-20.3150077],[-47.2819453,-20.303431],[-47.2782372,-20.2982552],[-47.2765857,-20.2910941],[-47.2722852,-20.2873338],[-47.272132,-20.2852277],[-47.2688838,-20.2842129],[-47.2702448,-20.2826443],[-47.2640803,-20.2832297],[-47.2641198,-20.2793835],[-47.2621412,-20.2798678],[-47.2599515,-20.277139],[-47.2609445,-20.2761056],[-47.2592697,-20.2767497],[-47.2607592,-20.2750954],[-47.2586769,-20.2753618],[-47.2588671,-20.2716846],[-47.2536424,-20.2636231],[-47.2472218,-20.2616451],[-47.2483141,-20.2589595],[-47.243632,-20.2524846],[-47.2444765,-20.2510873],[-47.2413624,-20.2500227],[-47.2421643,-20.247133],[-47.2304432,-20.2189484],[-47.2351884,-20.2162336],[-47.2509971,-20.1990207],[-47.2566309,-20.1886345],[-47.2581493,-20.1848966],[-47.2578205,-20.1789176],[-47.2547826,-20.1726185],[-47.2561523,-20.1664085],[-47.2653676,-20.1573407],[-47.2750411,-20.1538318],[-47.2805951,-20.156306],[-47.2940938,-20.1481278],[-47.2996048,-20.1380937],[-47.3066623,-20.132524],[-47.3089221,-20.1232974],[-47.339413,-20.1108221],[-47.3505514,-20.1030079],[-47.3633321,-20.09883],[-47.366625,-20.0962028],[-47.3702326,-20.0873269],[-47.3758307,-20.0829141],[-47.3863366,-20.0817092],[-47.4032763,-20.082966],[-47.4078756,-20.0803546],[-47.4153239,-20.0669076],[-47.4370398,-20.0484924],[-47.4412055,-20.0371922],[-47.4409754,-20.0293031],[-47.4313624,-20.0221478],[-47.4303262,-20.0183102],[-47.4251842,-20.0153864],[-47.425913,-20.0107984],[-47.4340218,-20.004049],[-47.4391208,-19.9950416],[-47.451566,-19.9869777],[-47.4544101,-19.9781052],[-47.4633147,-19.9648257],[-47.4667914,-19.9621407],[-47.4732013,-19.9616158],[-47.4790891,-19.9690543],[-47.4836161,-19.9683846],[-47.4971878,-19.9714901],[-47.5014459,-19.974183],[-47.5072078,-19.9827238],[-47.5402933,-19.984385],[-47.5519448,-19.9976333],[-47.5565843,-19.9977168],[-47.5780463,-19.9919292],[-47.5818907,-19.9940598],[-47.5923945,-20.0070415],[-47.5921886,-20.0163995],[-47.5952399,-20.0261946],[-47.6012152,-20.0339585],[-47.6088433,-20.0401694],[-47.6228282,-20.0431553],[-47.6303292,-20.0493658],[-47.6350332,-20.0499629],[-47.6427884,-20.0450662],[-47.6673255,-20.023925],[-47.6707581,-20.0179524],[-47.675335,-20.0029005],[-47.6954782,-19.9844402],[-47.7041879,-19.9795611],[-47.7127068,-19.9780627],[-47.7283943,-19.9841316],[-47.7337571,-19.987894],[-47.7509901,-19.9902819],[-47.7625829,-19.9860158],[-47.7751484,-19.9873943],[-47.7795858,-19.9860549],[-47.8056314,-19.985122],[-47.8282934,-19.9921031],[-47.8347087,-19.9960653],[-47.8399792,-19.9949563],[-47.847779,-19.9898607],[-47.8543892,-19.989777],[-47.8600394,-19.9931636],[-47.8749834,-20.0151394],[-47.8760804,-20.0253615],[-47.8741013,-20.0370675],[-47.8607283,-20.0464672],[-47.8594991,-20.0493407],[-47.8619156,-20.0567614],[-47.8696416,-20.0606794],[-47.8719441,-20.0645885],[-47.869,-20.076],[-47.872635,-20.0837643],[-47.8746375,-20.0987386],[-47.8819684,-20.1062063],[-47.8994982,-20.1179994],[-47.9225988,-20.10994],[-47.9311722,-20.1027058],[-47.9372606,-20.0909204],[-47.944343,-20.0651295],[-47.9491888,-20.054742],[-47.9572652,-20.0438868],[-47.9679509,-20.0352488],[-47.9775183,-20.0345484],[-47.9837309,-20.0378169],[-47.9880798,-20.0451708],[-47.9885768,-20.0545085],[-47.9950379,-20.0716652],[-48.0037355,-20.1101733],[-48.0124332,-20.1184572],[-48.0221249,-20.1233573],[-48.0426265,-20.1281405],[-48.0630967,-20.1405673],[-48.0817229,-20.147496],[-48.1049179,-20.1484858],[-48.1308793,-20.1349518],[-48.1762317,-20.0943196],[-48.1946623,-20.065733],[-48.2068205,-20.0398013],[-48.2292928,-20.0277479],[-48.2339123,-20.0273554],[-48.241989,-20.0294727],[-48.2476916,-20.0352024],[-48.2485285,-20.0373667],[-48.2445683,-20.0481238],[-48.2537106,-20.0769818],[-48.2509933,-20.084609],[-48.219,-20.115],[-48.217,-20.125],[-48.224,-20.133],[-48.237,-20.135],[-48.241,-20.14],[-48.265,-20.143],[-48.283,-20.138],[-48.295,-20.124],[-48.317,-20.113],[-48.339,-20.114],[-48.353,-20.121],[-48.378,-20.122],[-48.405,-20.113],[-48.4553038,-20.1230721],[-48.491,-20.138],[-48.514498,-20.1393608],[-48.5403155,-20.1361613],[-48.554,-20.13],[-48.5699773,-20.1271076],[-48.6,-20.139],[-48.626,-20.16],[-48.6461802,-20.1669412],[-48.665,-20.166],[-48.674,-20.161],[-48.693,-20.162],[-48.707,-20.16],[-48.729,-20.15],[-48.753,-20.153],[-48.781,-20.163],[-48.825,-20.161],[-48.832,-20.164],[-48.844,-20.173],[-48.8550908,-20.1854959],[-48.857,-20.199],[-48.853,-20.209],[-48.856,-20.226],[-48.872,-20.241],[-48.885,-20.266],[-48.8864682,-20.3012533],[-48.875,-20.315],[-48.88,-20.348],[-48.869,-20.379],[-48.867,-20.398],[-48.878,-20.429],[-48.886,-20.436],[-48.899,-20.441],[-48.963,-20.403],[-48.968,-20.393],[-48.97,-20.386],[-48.966,-20.368],[-48.964,-20.283],[-48.961,-20.263],[-48.972,-20.207],[-48.984,-20.173],[-48.992,-20.165],[-49.014,-20.154],[-49.032,-20.15],[-49.0591609,-20.1510806],[-49.0674798,-20.1547435],[-49.0718031,-20.1614969],[-49.0768504,-20.179945],[-49.089,-20.212],[-49.0960121,-20.2259491],[-49.1121912,-20.2506824],[-49.1194222,-20.269296],[-49.1339064,-20.2843383],[-49.1562867,-20.2962933],[-49.1703177,-20.306454],[-49.1725617,-20.3125351],[-49.1835625,-20.3146598],[-49.1918788,-20.3076144],[-49.1955606,-20.3088008],[-49.2024817,-20.3049935],[-49.2264579,-20.3054447],[-49.2359615,-20.2942431],[-49.237824,-20.28959],[-49.2471796,-20.2800096],[-49.2484756,-20.2744503],[-49.2590191,-20.2578793],[-49.2596873,-20.2454207],[-49.266,-20.228],[-49.2831877,-20.2001211],[-49.2874427,-20.1883662],[-49.299,-20.167],[-49.2996801,-20.1496434],[-49.3092652,-20.1005862],[-49.3063341,-20.0558392],[-49.3003724,-20.038764],[-49.2948819,-20.0093226],[-49.2828608,-20.0055129],[-49.262,-20.006],[-49.253949,-20.0033717],[-49.248,-19.999],[-49.2452794,-19.9898616],[-49.2455425,-19.9764743],[-49.249,-19.969],[-49.265,-19.962],[-49.297,-19.96],[-49.3197298,-19.9681052],[-49.3322789,-19.9789211],[-49.341445,-19.982464],[-49.3557211,-19.9845682],[-49.4136325,-19.9840639],[-49.4467443,-19.9805374],[-49.458,-19.975],[-49.4850259,-19.9532957],[-49.496,-19.939],[-49.503,-19.919],[-49.528,-19.91],[-49.551,-19.905],[-49.559,-19.911],[-49.583,-19.91],[-49.6141908,-19.9206238],[-49.634,-19.931],[-49.676,-19.932],[-49.677,-19.929],[-49.712,-19.931],[-49.749,-19.9239999],[-49.782,-19.924],[-49.793,-19.928],[-49.835,-19.933],[-49.855,-19.946],[-49.891,-19.943],[-49.906,-19.937],[-49.962,-19.92],[-50.012,-19.926],[-50.044,-19.916],[-50.079,-19.886],[-50.103,-19.874],[-50.13,-19.873],[-50.16,-19.878],[-50.201,-19.866],[-50.215,-19.866],[-50.245,-19.876],[-50.285,-19.867],[-50.311,-19.873],[-50.337,-19.869],[-50.350337,-19.8630515],[-50.3595192,-19.8516844],[-50.3745979,-19.8447688],[-50.3770146,-19.8398645],[-50.39098,-19.8280234],[-50.3971064,-19.8176451],[-50.4013696,-19.8154442],[-50.4128878,-19.8038815],[-50.4179631,-19.8017649],[-50.4229456,-19.7971625],[-50.4394203,-19.7955346],[-50.447267,-19.789411],[-50.4532244,-19.7895662],[-50.466267,-19.7823361],[-50.4730816,-19.7823272],[-50.498,-19.795],[-50.517,-19.796],[-50.548,-19.811],[-50.574,-19.814],[-50.586,-19.826],[-50.605,-19.856],[-50.6319448,-19.8709166],[-50.6397935,-19.8804935],[-50.6521026,-19.9014513],[-50.6613241,-19.909002],[-50.6805462,-19.914812],[-50.709,-19.92],[-50.733,-19.929],[-50.783,-19.937],[-50.794,-19.941],[-50.817,-19.958],[-50.851,-19.97],[-50.872,-19.989],[-50.8971994,-19.9901552],[-50.9081347,-19.9942574],[-50.9108526,-19.9974493],[-50.9119029,-20.003079],[-50.9247157,-20.0113546],[-50.9336598,-20.0149292],[-50.9470541,-20.0312523],[-50.9531779,-20.033877],[-50.9618953,-20.0319333],[-50.9658345,-20.0335907],[-50.971725,-20.0404725],[-50.9808395,-20.0578564],[-50.9965342,-20.0773146],[-51.000475,-20.0853844],[-51.0011911,-20.0963348],[-51.029,-20.151],[-51.048,-20.198],[-51.0582635,-20.2331887],[-51.069,-20.25],[-51.0864666,-20.267587],[-51.132,-20.295],[-51.16,-20.305],[-51.295,-20.328],[-51.321,-20.339],[-51.343,-20.355],[-51.35,-20.363],[-51.361,-20.384],[-51.375,-20.396],[-51.403,-20.452],[-51.409,-20.459],[-51.4233065,-20.467966],[-51.4353913,-20.4733253],[-51.4492291,-20.4828154],[-51.4566117,-20.4956598],[-51.4637827,-20.5014527],[-51.4661474,-20.5082467],[-51.4928561,-20.5465063],[-51.5002223,-20.5682163],[-51.5330051,-20.5969939],[-51.5751862,-20.6234191],[-51.594,-20.643],[-51.6281934,-20.7250529],[-51.6342102,-20.7531273],[-51.6328554,-20.759537],[-51.6219697,-20.7764348],[-51.626833,-20.7839296],[-51.625979,-20.7930691],[-51.6270538,-20.8022449],[-51.6316886,-20.8146007],[-51.6325469,-20.8370631],[-51.6277404,-20.8652968],[-51.6146941,-20.8883932],[-51.6133208,-20.8980157],[-51.6200781,-20.9222008],[-51.6223955,-20.937653],[-51.6247988,-20.9429237],[-51.6323519,-20.9490959],[-51.6432953,-20.9520216],[-51.6594315,-20.9656073],[-51.6685296,-20.9684926],[-51.6854382,-20.9702558],[-51.7044068,-20.9675309],[-51.7123032,-20.9688132],[-51.7204572,-20.9731411],[-51.753,-21.014],[-51.7699815,-21.0422094],[-51.77972,-21.0851782],[-51.789,-21.102],[-51.8098756,-21.1135197],[-51.813514,-21.1206898],[-51.8173485,-21.1244126],[-51.8253531,-21.1278657],[-51.8409959,-21.1339782],[-51.85665,-21.1299072],[-51.865,-21.13],[-51.8723281,-21.1325537],[-51.8785493,-21.1371886],[-51.8765764,-21.1816416],[-51.8804154,-21.1978403],[-51.8622298,-21.2300907],[-51.8600412,-21.2410348],[-51.8541417,-21.253785],[-51.8545157,-21.2603051],[-51.8484396,-21.2660712],[-51.849208,-21.2763591],[-51.8556657,-21.2862954],[-51.860794,-21.3169386],[-51.860727,-21.337356],[-51.8631897,-21.3464043],[-51.8688617,-21.3540794],[-51.8864934,-21.3662066],[-51.9014966,-21.3795001],[-51.9109191,-21.3918887],[-51.9178082,-21.4113454],[-51.9228174,-21.4395278],[-51.9282095,-21.4545055],[-51.9310176,-21.4585583],[-51.9488514,-21.4692558],[-51.962,-21.493],[-51.9702442,-21.5039785],[-51.9920166,-21.5163759],[-51.9988148,-21.5170714],[-52.0442534,-21.5059423],[-52.0525361,-21.5056628],[-52.063417,-21.508087],[-52.0749022,-21.5154159],[-52.094192,-21.5348276],[-52.1009996,-21.5534666],[-52.1025754,-21.5639853],[-52.1018989,-21.5702223],[-52.068,-21.598],[-52.062,-21.62],[-52.049,-21.643],[-52.048,-21.656],[-52.0537669,-21.672574],[-52.076,-21.714],[-52.085,-21.723],[-52.103,-21.746],[-52.14,-21.755],[-52.1626737,-21.7738459],[-52.183,-21.814],[-52.183,-21.826],[-52.19,-21.846],[-52.233,-21.883],[-52.248,-21.902],[-52.258,-21.905],[-52.263,-21.912],[-52.274,-21.914],[-52.301,-21.942],[-52.319,-21.972],[-52.345,-22.062],[-52.377,-22.106],[-52.3919064,-22.1146789],[-52.3947125,-22.1223931],[-52.408,-22.141],[-52.456,-22.185],[-52.479,-22.2],[-52.484,-22.213],[-52.489,-22.218],[-52.503,-22.225],[-52.523,-22.229],[-52.551,-22.243],[-52.579,-22.251],[-52.601,-22.271],[-52.629,-22.282],[-52.645,-22.298],[-52.655,-22.303],[-52.695,-22.314],[-52.724,-22.335],[-52.745,-22.343],[-52.798,-22.378],[-52.839,-22.415],[-52.854,-22.439],[-52.895,-22.456],[-52.955,-22.475],[-52.998,-22.493],[-53.005,-22.509],[-53.014,-22.52],[-53.039,-22.527],[-53.058,-22.536],[-53.077,-22.553],[-53.107,-22.595],[-53.109,-22.604]]]}}